address,city,state,zip_code
8005 CASTLEWAY DR,INDIANAPOLIS,IN,46250
8560 CASTLETON SQUARE DR,INDIANAPOLIS,IN,46250
6711 82ND ST,INDIANAPOLIS,IN,46250
8136 BASH ST,INDIANAPOLIS,IN,46250
6327 82ND ST,INDIANAPOLIS,IN,46250
6817 82ND ST,INDIANAPOLIS,IN,46250
9330 CORPORATION DR,INDIANAPOLIS,IN,46256
5258 82ND ST,INDIANAPOLIS,IN,46250
8025 CASTLEWAY DR,INDIANAPOLIS,IN,46250
8530 CENTER RUN RD,INDIANAPOLIS,IN,46250
9325 UPTOWN DR,INDIANAPOLIS,IN,46256
8149 CASTLETON RD,INDIANAPOLIS,IN,46250
8481 BASH ST,INDIANAPOLIS,IN,46250
5875 CASTLE CREEK PKWY NDR,INDIANAPOLIS,IN,46250
7201 KEYSTONE AVE,INDIANAPOLIS,IN,46240
7200 SARTO DR,INDIANAPOLIS,IN,46240
7200 SARTO DR,INDIANAPOLIS,IN,46240
9380 DELEGATES ROW,INDIANAPOLIS,IN,46240
8701 KEYSTONE CROSSING,INDIANAPOLIS,IN,46240
8505 KEYSTONE CROSSING,INDIANAPOLIS,IN,46240
8702 KEYSTONE CROSSING,INDIANAPOLIS,IN,46240
9380 DELEGATES ROW,INDIANAPOLIS,IN,46240
8630 KEYSTONE CROSSING,INDIANAPOLIS,IN,46240
8701 KEYSTONE CROSSING,INDIANAPOLIS,IN,46240
5885 CRITTENDEN AVE,INDIANAPOLIS,IN,46220
1134 54TH ST,INDIANAPOLIS,IN,46220
8804 CRAWFORDSVILLE RD,INDIANAPOLIS,IN,46234
8801 CRAWFORDSVILLE RD,INDIANAPOLIS,IN,46234
5903 MICHIGAN RD,INDIANAPOLIS,IN,46228
6850 PENDLETON PIKE,INDIANAPOLIS,IN,46226
6000 46TH ST,INDIANAPOLIS,IN,46226
5815 42ND ST,INDIANAPOLIS,IN,46226
4209 KITLEY AVE,INDIANAPOLIS,IN,46226
6190 38TH ST,INDIANAPOLIS,IN,46226
6326 RUCKER RD,INDIANAPOLIS,IN,46220
6284 RUCKER RD,INDIANAPOLIS,IN,46220
1211 DR M L KING JR ST,INDIANAPOLIS,IN,46202
127 MICHIGAN ST,INDIANAPOLIS,IN,46204
919 EAST ST,INDIANAPOLIS,IN,46202
1211 DR M L KING JR ST,INDIANAPOLIS,IN,46202
1011 PENNSYLVANIA ST,INDIANAPOLIS,IN,46204
1429 SHELBY ST,INDIANAPOLIS,IN,46203
1645 SOUTHEASTERN AVE,INDIANAPOLIS,IN,46201
1628 BATES ST,INDIANAPOLIS,IN,46201
1648 CRUFT ST,INDIANAPOLIS,IN,46203
6971 38TH ST,INDIANAPOLIS,IN,46254
57 RURAL ST,INDIANAPOLIS,IN,46201
4602 16TH ST,INDIANAPOLIS,IN,46201
2208 WASHINGTON ST,INDIANAPOLIS,IN,46201
4232 MICHIGAN ST,INDIANAPOLIS,IN,46201
1246 EAST ST,INDIANAPOLIS,IN,46225
4200 38TH ST NDR,INDIANAPOLIS,IN,46218
3801 FOREST MANOR AVE,INDIANAPOLIS,IN,46226
2620 SHERMAN DR,INDIANAPOLIS,IN,46218
2141 HOVEY ST,INDIANAPOLIS,IN,46218
2951 RALSTON AVE,INDIANAPOLIS,IN,46218
2407 SHERMAN DR,INDIANAPOLIS,IN,46218
1918 YANDES ST,INDIANAPOLIS,IN,46202
1102 16TH ST,INDIANAPOLIS,IN,46202
2557 COLUMBIA AVE,INDIANAPOLIS,IN,46205
1737 30TH ST,INDIANAPOLIS,IN,46218
2212 DR A J BROWN AVE,INDIANAPOLIS,IN,46205
3205 DR A J BROWN AVE,INDIANAPOLIS,IN,46205
2311 30TH ST,INDIANAPOLIS,IN,46218
3740 SHERMAN DR,INDIANAPOLIS,IN,46218
3929 MILLERSVILLE RD,INDIANAPOLIS,IN,46205
1920 38TH ST,INDIANAPOLIS,IN,46218
4016 KEYSTONE AVE,INDIANAPOLIS,IN,46205
2739 38TH ST,INDIANAPOLIS,IN,46218
3929 MILLERSVILLE RD,INDIANAPOLIS,IN,46205
1618 34TH ST,INDIANAPOLIS,IN,46218
2182 ILLINOIS ST,INDIANAPOLIS,IN,46202
1811 MERIDIAN ST,INDIANAPOLIS,IN,46202
944 30TH ST,INDIANAPOLIS,IN,46205
2145 TALBOTT ST,INDIANAPOLIS,IN,46202
2458 PENNSYLVANIA ST,INDIANAPOLIS,IN,46205
1517 ALABAMA ST,INDIANAPOLIS,IN,46202
140 14TH ST,INDIANAPOLIS,IN,46202
1456 DELAWARE ST,INDIANAPOLIS,IN,46202
1402 ILLINOIS ST,INDIANAPOLIS,IN,46202
2459 COLLEGE AVE,INDIANAPOLIS,IN,46205
2480 MERIDIAN ST,INDIANAPOLIS,IN,46208
1505 DELAWARE ST,INDIANAPOLIS,IN,46202
725 27TH ST,INDIANAPOLIS,IN,46205
2146 PARK AVE,INDIANAPOLIS,IN,46202
2201 CENTRAL AVE,INDIANAPOLIS,IN,46205
1740 PENNSYLVANIA ST,INDIANAPOLIS,IN,46202
2060 ILLINOIS ST,INDIANAPOLIS,IN,46202
1602 COLLEGE AVE,INDIANAPOLIS,IN,46202
1836 CENTRAL AVE,INDIANAPOLIS,IN,46202
2163 ILLINOIS ST,INDIANAPOLIS,IN,46202
1801 BROADWAY ST,INDIANAPOLIS,IN,46202
1327 CAPITOL AVE,INDIANAPOLIS,IN,46202
2602 55TH ST,INDIANAPOLIS,IN,46220
4555 KEYSTONE AVE,INDIANAPOLIS,IN,46205
5011 KESSLER BLVD EDR,INDIANAPOLIS,IN,46220
4601 KEYSTONE AVE,INDIANAPOLIS,IN,46205
2825 55TH PL,INDIANAPOLIS,IN,46220
1918 46TH ST,INDIANAPOLIS,IN,46205
4706 KEYSTONE AVE,INDIANAPOLIS,IN,46205
1150 46TH ST,INDIANAPOLIS,IN,46205
5146 BROUSE AVE,INDIANAPOLIS,IN,46205
2048 46TH ST,INDIANAPOLIS,IN,46205
203 30TH ST,INDIANAPOLIS,IN,46205
906 27TH ST,INDIANAPOLIS,IN,46208
1127 UDELL ST,INDIANAPOLIS,IN,46208
2844 HARDING ST,INDIANAPOLIS,IN,46208
1301 30TH ST,INDIANAPOLIS,IN,46208
1907 GENT AVE,INDIANAPOLIS,IN,46202
1352 BURDSAL PKWY,INDIANAPOLIS,IN,46208
2101 MONTCALM ST,INDIANAPOLIS,IN,46202
1640 MILBURN ST,INDIANAPOLIS,IN,46202
5750 56TH ST,INDIANAPOLIS,IN,46254
5670 EDEN VILLAGE DR,INDIANAPOLIS,IN,46254
3315 56TH ST,INDIANAPOLIS,IN,46228
3753 WASHINGTON ST,INDIANAPOLIS,IN,46241
3701 16TH ST,INDIANAPOLIS,IN,46222
3611 16TH ST,INDIANAPOLIS,IN,46222
2323 16TH ST,INDIANAPOLIS,IN,46222
3115 16TH ST,INDIANAPOLIS,IN,46222
1045 TRAUB AVE,INDIANAPOLIS,IN,46222
2534 16TH ST,INDIANAPOLIS,IN,46222
2429 17TH ST,INDIANAPOLIS,IN,46222
2206 LAFAYETTE RD,INDIANAPOLIS,IN,46222
2102 LAFAYETTE RD,INDIANAPOLIS,IN,46222
3730 16TH ST,INDIANAPOLIS,IN,46222
2102 LAFAYETTE RD,INDIANAPOLIS,IN,46222
1930 LAFAYETTE RD,INDIANAPOLIS,IN,46222
2330 LAFAYETTE RD,INDIANAPOLIS,IN,46222
6269 38TH ST,INDIANAPOLIS,IN,46254
3901 MERIDIAN ST,INDIANAPOLIS,IN,46208
4838 COLLEGE AVE,INDIANAPOLIS,IN,46205
4851 COLLEGE AVE,INDIANAPOLIS,IN,46205
5212 COLLEGE AVE,INDIANAPOLIS,IN,46220
4217 CENTRAL AVE,INDIANAPOLIS,IN,46205
4401 CARROLLTON AVE,INDIANAPOLIS,IN,46205
8935 MERIDIAN ST,INDIANAPOLIS,IN,46260
8103 CLEARVISTA PKWY,INDIANAPOLIS,IN,46256
6010 BROOKVILLE RD,INDIANAPOLIS,IN,46219
990 ARLINGTON AVE,INDIANAPOLIS,IN,46219
5913 10TH ST,INDIANAPOLIS,IN,46219
41 SHORTRIDGE RD,INDIANAPOLIS,IN,46219
1801 SHADELAND AVE,INDIANAPOLIS,IN,46219
1525 SHADELAND AVE,INDIANAPOLIS,IN,46219
1860 ARLINGTON AVE,INDIANAPOLIS,IN,46218
5442 21ST ST,INDIANAPOLIS,IN,46218
5501 21ST ST,INDIANAPOLIS,IN,46218
1120 ARLINGTON AVE,INDIANAPOLIS,IN,46203
1609 NORTON AVE,INDIANAPOLIS,IN,46227
7320 US 31 INDIANAPOLIS,IN,46227
2755 MC CLURE ST,INDIANAPOLIS,IN,46241
1030 TROY AVE,INDIANAPOLIS,IN,46203
2002 WELLESLEY BLVD,INDIANAPOLIS,IN,46219
2960 KENWOOD AVE,INDIANAPOLIS,IN,46208
3338 ILLINOIS ST,INDIANAPOLIS,IN,46208
3450 ILLINOIS ST,INDIANAPOLIS,IN,46208
3610 MERIDIAN ST,INDIANAPOLIS,IN,46208
6429 KEYSTONE AVE,INDIANAPOLIS,IN,46220
6231 KEYSTONE AVE,INDIANAPOLIS,IN,46220
2710 62ND ST,INDIANAPOLIS,IN,46220
6191 KEYSTONE AVE,INDIANAPOLIS,IN,46220
2025 ENGLISH AVE,INDIANAPOLIS,IN,46201
4111 82ND ST,INDIANAPOLIS,IN,46250
6420 GUION RD,INDIANAPOLIS,IN,46268
7980 MICHIGAN RD,INDIANAPOLIS,IN,46268
911 BROAD RIPPLE AVE,INDIANAPOLIS,IN,46220
724 BROAD RIPPLE AVE,INDIANAPOLIS,IN,46220
6060 COLLEGE AVE,INDIANAPOLIS,IN,46220
6406 CORNELL AVE,INDIANAPOLIS,IN,46220
688 63RD ST,INDIANAPOLIS,IN,46220
6523 FERGUSON ST,INDIANAPOLIS,IN,46220
3959 BOULEVARD PL,INDIANAPOLIS,IN,46208
119 56TH ST,INDIANAPOLIS,IN,46208
5601 ILLINOIS ST,INDIANAPOLIS,IN,46208
8140 CASTLETON RD,INDIANAPOLIS,IN,46250
8616 10TH ST,INDIANAPOLIS,IN,46234
9250 16TH ST,INDIANAPOLIS,IN,46234
7415 10TH ST,INDIANAPOLIS,IN,46214
1134 54TH ST,INDIANAPOLIS,IN,46220
8465 CRAWFORDSVILLE RD,INDIANAPOLIS,IN,46234
9204 CRAWFORDSVILLE RD,INDIANAPOLIS,IN,46234
5802 71ST ST,INDIANAPOLIS,IN,46268
6640 INTECH BLVD,INDIANAPOLIS,IN,46278
7085 MICHIGAN RD,INDIANAPOLIS,IN,46268
6851 MICHIGAN RD,INDIANAPOLIS,IN,46268
6877 TOWNSHIP LINE RD,INDIANAPOLIS,IN,46260
5540 MICHIGAN RD,INDIANAPOLIS,IN,46228
801 73RD ST,INDIANAPOLIS,IN,46260
6350 RUCKER RD,INDIANAPOLIS,IN,46220
637 11TH ST,INDIANAPOLIS,IN,46202
1226 DR M L KING JR ST,INDIANAPOLIS,IN,46202
1200 WATERWAY BLVD,INDIANAPOLIS,IN,46202
550 VIRGINIA AVE,INDIANAPOLIS,IN,46203
1616 BATES ST,INDIANAPOLIS,IN,46201
200 STATE AVE,INDIANAPOLIS,IN,46201
1016 CALVARY ST,INDIANAPOLIS,IN,46203
1156 SHELBY ST,INDIANAPOLIS,IN,46203
3509 PROSPECT ST,INDIANAPOLIS,IN,46203
6971 38TH ST,INDIANAPOLIS,IN,46254
6915 38TH ST,INDIANAPOLIS,IN,46254
7615 CRAWFORDSVILLE RD,INDIANAPOLIS,IN,46214
2629 WATERFRONT PKWY EDR,INDIANAPOLIS,IN,46214
8091 CRAWFORDSVILLE RD,INDIANAPOLIS,IN,46214
2222 NEW YORK ST,INDIANAPOLIS,IN,46201
1852 SHELBY ST,INDIANAPOLIS,IN,46203
2853 25TH ST,INDIANAPOLIS,IN,46218
2802 EASTERN AVE,INDIANAPOLIS,IN,46218
2409 COLUMBIA AVE,INDIANAPOLIS,IN,46205
1132 16TH ST,INDIANAPOLIS,IN,46202
1430 32ND ST,INDIANAPOLIS,IN,46218
2002 ALVORD ST,INDIANAPOLIS,IN,46202
3132 DR A J BROWN AVE,INDIANAPOLIS,IN,46205
2215 ALVORD ST,INDIANAPOLIS,IN,46205
2830 SHERMAN DR,INDIANAPOLIS,IN,46218
3135 DR A J BROWN AVE,INDIANAPOLIS,IN,46205
2506 DR A J BROWN AVE,INDIANAPOLIS,IN,46205
4015 KEYSTONE AVE,INDIANAPOLIS,IN,46205
2455 CENTRAL AVE,INDIANAPOLIS,IN,46205
1919 MERIDIAN ST,INDIANAPOLIS,IN,46202
2331 MERIDIAN ST,INDIANAPOLIS,IN,46208
1935 CAPITOL AVE,INDIANAPOLIS,IN,46202
1603 CORNELL AVE,INDIANAPOLIS,IN,46202
1935 CAPITOL AVE,INDIANAPOLIS,IN,46202
666 22ND ST,INDIANAPOLIS,IN,46202
1015 29TH ST,INDIANAPOLIS,IN,46205
3110 SUTHERLAND AVE,INDIANAPOLIS,IN,46205
2130 CENTRAL AVE,INDIANAPOLIS,IN,46202
1633 CAPITOL AVE,INDIANAPOLIS,IN,46202
2126 MERIDIAN ST,INDIANAPOLIS,IN,46202
2425 MERIDIAN ST,INDIANAPOLIS,IN,46208
2233 PARK AVE,INDIANAPOLIS,IN,46205
1449 ILLINOIS ST,INDIANAPOLIS,IN,46202
1423 PENNSYLVANIA ST,INDIANAPOLIS,IN,46202
1744 ILLINOIS ST,INDIANAPOLIS,IN,46202
2234 PIERSON ST,INDIANAPOLIS,IN,46208
2205 DELAWARE ST,INDIANAPOLIS,IN,46205
918 30TH ST,INDIANAPOLIS,IN,46205
1327 PENNSYLVANIA ST,INDIANAPOLIS,IN,46202
1633 CAPITOL AVE,INDIANAPOLIS,IN,46202
1827 MERIDIAN ST,INDIANAPOLIS,IN,46202
1347 MERIDIAN ST,INDIANAPOLIS,IN,46202
2525 54TH ST,INDIANAPOLIS,IN,46220
1150 46TH ST,INDIANAPOLIS,IN,46205
2109 46TH ST,INDIANAPOLIS,IN,46205
2802 CENTRAL AVE,INDIANAPOLIS,IN,46205
2955 MERIDIAN ST,INDIANAPOLIS,IN,46208
510 FAIRFIELD AVE,INDIANAPOLIS,IN,46205
3333 MERIDIAN ST,INDIANAPOLIS,IN,46208
3353 CENTRAL AVE,INDIANAPOLIS,IN,46205
703 30TH ST,INDIANAPOLIS,IN,46205
3351 MERIDIAN ST,INDIANAPOLIS,IN,46208
2434 BOND ST,INDIANAPOLIS,IN,46208
1090 23RD ST,INDIANAPOLIS,IN,46208
1073 UDELL ST,INDIANAPOLIS,IN,46208
1870 MONTCALM ST,INDIANAPOLIS,IN,46202
2310 WHITE AVE,INDIANAPOLIS,IN,46208
2425 BARNES AVE,INDIANAPOLIS,IN,46208
1209 EUGENE ST,INDIANAPOLIS,IN,46208
2702 HARDING ST,INDIANAPOLIS,IN,46208
828 ROACHE ST,INDIANAPOLIS,IN,46208
1616 MILBURN ST,INDIANAPOLIS,IN,46202
1164 30TH ST,INDIANAPOLIS,IN,46208
2720 MANSION DR,INDIANAPOLIS,IN,46222
5621 GEORGETOWN RD,INDIANAPOLIS,IN,46254
5602 LAFAYETTE RD,INDIANAPOLIS,IN,46254
4720 56TH ST,INDIANAPOLIS,IN,46254
5550 LAFAYETTE RD,INDIANAPOLIS,IN,46254
5695 LAFAYETTE RD,INDIANAPOLIS,IN,46254
4202 56TH ST,INDIANAPOLIS,IN,46254
4875 56TH ST,INDIANAPOLIS,IN,46254
6155 GUION RD,INDIANAPOLIS,IN,46254
7023 CORPORATE DR,INDIANAPOLIS,IN,46278
6331 CRAWFORDSVILLE RD,INDIANAPOLIS,IN,46224
877 COLLIER ST,INDIANAPOLIS,IN,46241
2410 EXECUTIVE DR,INDIANAPOLIS,IN,46241
2020 BELMONT AVE,INDIANAPOLIS,IN,46221
1701 TIBBS AVE,INDIANAPOLIS,IN,46241
2501 16TH ST,INDIANAPOLIS,IN,46222
2330 MICHIGAN ST,INDIANAPOLIS,IN,46222
1424 TIBBS AVE,INDIANAPOLIS,IN,46222
3237 16TH ST,INDIANAPOLIS,IN,46222
2323 16TH ST,INDIANAPOLIS,IN,46222
3642 16TH ST,INDIANAPOLIS,IN,46222
3413 GEORGETOWN RD,INDIANAPOLIS,IN,46224
2410 17TH ST,INDIANAPOLIS,IN,46222
5456 34TH ST,INDIANAPOLIS,IN,46224
3540 30TH ST,INDIANAPOLIS,IN,46222
3650 LAFAYETTE RD,INDIANAPOLIS,IN,46222
3651 COMMERCIAL DR,INDIANAPOLIS,IN,46222
2405 LAFAYETTE RD,INDIANAPOLIS,IN,46222
2002 LAFAYETTE RD,INDIANAPOLIS,IN,46222
2960 LAFAYETTE RD,INDIANAPOLIS,IN,46222
4635 30TH ST,INDIANAPOLIS,IN,46222
1910 BELLEVIEW PL,INDIANAPOLIS,IN,46222
3022 GUION RD,INDIANAPOLIS,IN,46222
4545 38TH ST,INDIANAPOLIS,IN,46254
2619 LAFAYETTE RD,INDIANAPOLIS,IN,46222
1802 TIBBS AVE,INDIANAPOLIS,IN,46222
3117 30TH ST,INDIANAPOLIS,IN,46222
3002 TIBBS AVE,INDIANAPOLIS,IN,46222
3040 16TH ST,INDIANAPOLIS,IN,46222
3612 16TH ST,INDIANAPOLIS,IN,46222
5935 56TH ST,INDIANAPOLIS,IN,46254
3103 HIGH SCHOOL RD,INDIANAPOLIS,IN,46224
5363 COLLEGE AVE,INDIANAPOLIS,IN,46220
5212 COLLEGE AVE,INDIANAPOLIS,IN,46220
4923 COLLEGE AVE,INDIANAPOLIS,IN,46205
4217 CENTRAL AVE,INDIANAPOLIS,IN,46205
3860 COLLEGE AVE,INDIANAPOLIS,IN,46205
4550 COLLEGE AVE,INDIANAPOLIS,IN,46205
3951 MERIDIAN ST,INDIANAPOLIS,IN,46208
3925 COLLEGE AVE,INDIANAPOLIS,IN,46205
5692 CENTRAL AVE,INDIANAPOLIS,IN,46220
661 49TH ST,INDIANAPOLIS,IN,46205
644 38TH ST,INDIANAPOLIS,IN,46205
4905 COLLEGE AVE,INDIANAPOLIS,IN,46205
141 SHORTRIDGE RD,INDIANAPOLIS,IN,46219
5935 MADISON AVE,INDIANAPOLIS,IN,46227
5330 MADISON AVE,INDIANAPOLIS,IN,46227
2350 BELMONT AVE,INDIANAPOLIS,IN,46221
2319 KENTUCKY AVE,INDIANAPOLIS,IN,46221
3748 TROY AVE,INDIANAPOLIS,IN,46221
3449 HARDING ST,INDIANAPOLIS,IN,46217
910 MARKWOOD AVE,INDIANAPOLIS,IN,46227
1203 TROY AVE,INDIANAPOLIS,IN,46225
3432 MADISON AVE,INDIANAPOLIS,IN,46227
59 PLEASANT RUN PKWY SDR,INDIANAPOLIS,IN,46225
2834 SHELBY ST,INDIANAPOLIS,IN,46203
16 GIBSON AVE,INDIANAPOLIS,IN,46219
3360 ILLINOIS ST,INDIANAPOLIS,IN,46208
4729 82ND ST,INDIANAPOLIS,IN,46250
4952 KENTUCKY AVE,INDIANAPOLIS,IN,46221
6739 THOMPSON RD,INDIANAPOLIS,IN,46241
3701 SHADELAND AVE,INDIANAPOLIS,IN,46226
5253 30TH ST,INDIANAPOLIS,IN,46218
7480 MICHIGAN RD,INDIANAPOLIS,IN,46268
3444 71ST ST,INDIANAPOLIS,IN,46268
7198 MICHIGAN RD,INDIANAPOLIS,IN,46268
7208 DOBSON ST,INDIANAPOLIS,IN,46268
2935 WESTLANE RD,INDIANAPOLIS,IN,46268
3333 75TH ST,INDIANAPOLIS,IN,46268
7602 MICHIGAN RD,INDIANAPOLIS,IN,46268
8540 MICHIGAN RD,INDIANAPOLIS,IN,46268
3400 DOUBLE TREE BLVD,INDIANAPOLIS,IN,46268
8575 MICHIGAN RD,INDIANAPOLIS,IN,46268
3901 86TH ST,INDIANAPOLIS,IN,46268
3345 86TH ST,INDIANAPOLIS,IN,46268
6572 CORNELL AVE,INDIANAPOLIS,IN,46220
6338 COLLEGE AVE,INDIANAPOLIS,IN,46220
823 64TH ST,INDIANAPOLIS,IN,46220
1021 BROAD RIPPLE AVE,INDIANAPOLIS,IN,46220
733 BROAD RIPPLE AVE,INDIANAPOLIS,IN,46220
834 64TH ST,INDIANAPOLIS,IN,46220
714 BROAD RIPPLE AVE,INDIANAPOLIS,IN,46220
714 65TH ST,INDIANAPOLIS,IN,46220
6220 CARROLLTON AVE,INDIANAPOLIS,IN,46220
6216 CARROLLTON AVE,INDIANAPOLIS,IN,46220
6225 BROADWAY ST,INDIANAPOLIS,IN,46220
6323 FERGUSON ST,INDIANAPOLIS,IN,46220
6246 CARROLLTON AVE,INDIANAPOLIS,IN,46220
701 BROAD RIPPLE AVE,INDIANAPOLIS,IN,46220
6334 WESTFIELD BLVD,INDIANAPOLIS,IN,46220
921 BROAD RIPPLE AVE,INDIANAPOLIS,IN,46220
1021 BROAD RIPPLE AVE,INDIANAPOLIS,IN,46220
1927 BROAD RIPPLE AVE,INDIANAPOLIS,IN,46220
5202 ILLINOIS ST,INDIANAPOLIS,IN,46208
8549 COLLEGE AVE,INDIANAPOLIS,IN,46240
1365 86TH ST,INDIANAPOLIS,IN,46240
465 86TH ST,INDIANAPOLIS,IN,46240
7575 HOLLIDAY DR E,INDIANAPOLIS,IN,46260
6410 CASTLEWAY WDR,INDIANAPOLIS,IN,46250
9520 UPTOWN DR,INDIANAPOLIS,IN,46256
7300 WASHINGTON ST,INDIANAPOLIS,IN,46231
7102 KEYSTONE AVE,INDIANAPOLIS,IN,46240
3809 82ND ST,INDIANAPOLIS,IN,46240
2602 RUTH DR,INDIANAPOLIS,IN,46240
3405 86TH ST,INDIANAPOLIS,IN,46240
8755 CRAWFORDSVILLE RD,INDIANAPOLIS,IN,46234
4010 86TH ST,INDIANAPOLIS,IN,46268
8741 FOUNDERS RD,INDIANAPOLIS,IN,46268
3601 VINCENNES RD,INDIANAPOLIS,IN,46268
9301 MICHIGAN RD,INDIANAPOLIS,IN,46268
8752 MICHIGAN RD,INDIANAPOLIS,IN,46268
2630 86TH ST,INDIANAPOLIS,IN,46268
8601 MICHIGAN RD,INDIANAPOLIS,IN,46268
8602 PURDUE RD,INDIANAPOLIS,IN,46268
3717 WOODVIEW TRACE,INDIANAPOLIS,IN,46268
2902 86TH ST,INDIANAPOLIS,IN,46268
9106 WESLEYAN RD,INDIANAPOLIS,IN,46268
9111 MICHIGAN RD,INDIANAPOLIS,IN,46268
4601 96TH ST,INDIANAPOLIS,IN,46268
8851 COLBY BLVD,INDIANAPOLIS,IN,46268
9010 MICHIGAN RD,INDIANAPOLIS,IN,46268
3307 96TH ST,INDIANAPOLIS,IN,46268
8741 FOUNDERS RD,INDIANAPOLIS,IN,46268
8645 GUION RD,INDIANAPOLIS,IN,46268
8902 VINCENNES CIR,INDIANAPOLIS,IN,46268
4105 96TH ST,INDIANAPOLIS,IN,46268
3334 FOUNDERS RD,INDIANAPOLIS,IN,46268
9140 MICHIGAN RD,INDIANAPOLIS,IN,46268
3871 92ND ST,INDIANAPOLIS,IN,46268
3905 VINCENNES RD,INDIANAPOLIS,IN,46268
2402 LAKE CIRCLE DR,INDIANAPOLIS,IN,46268
8930 WESLEYAN RD,INDIANAPOLIS,IN,46268
5860 73RD ST,INDIANAPOLIS,IN,46278
5502 73RD ST,INDIANAPOLIS,IN,46268
5505 74TH ST,INDIANAPOLIS,IN,46268
7580 WOODLAND DR,INDIANAPOLIS,IN,46278
7210 GEORGETOWN RD,INDIANAPOLIS,IN,46268
5520 76TH ST,INDIANAPOLIS,IN,46268
5020 71ST ST,INDIANAPOLIS,IN,46268
5505 86TH ST,INDIANAPOLIS,IN,46268
5540 ROCK HAMPTON CT,INDIANAPOLIS,IN,46268
4920 86TH ST,INDIANAPOLIS,IN,46268
4806 86TH ST,INDIANAPOLIS,IN,46268
5640 86TH ST,INDIANAPOLIS,IN,46278
6040 84TH ST,INDIANAPOLIS,IN,46278
5420 86TH ST,INDIANAPOLIS,IN,46268
5205 ROBISON RD,INDIANAPOLIS,IN,46268
5501 86TH ST,INDIANAPOLIS,IN,46268
5121 86TH ST,INDIANAPOLIS,IN,46268
6650 TELECOM DR,INDIANAPOLIS,IN,46278
7601 MICHIGAN RD,INDIANAPOLIS,IN,46268
7455 MICHIGAN RD,INDIANAPOLIS,IN,46268
2915 75TH ST,INDIANAPOLIS,IN,46268
7840 DITCH RD,INDIANAPOLIS,IN,46260
6881 MICHIGAN RD,INDIANAPOLIS,IN,46268
5835 MICHIGAN RD,INDIANAPOLIS,IN,46228
6014 MICHIGAN RD,INDIANAPOLIS,IN,46228
5102 62ND ST,INDIANAPOLIS,IN,46220
520 MCCARTY ST,INDIANAPOLIS,IN,46225
1501 PLEASANT ST,INDIANAPOLIS,IN,46203
1702 RAYMOND ST,INDIANAPOLIS,IN,46203
3110 BETHEL AVE,INDIANAPOLIS,IN,46203
6929 38TH ST,INDIANAPOLIS,IN,46254
6830 38TH ST,INDIANAPOLIS,IN,46254
6750 EAGLE VIEW DR,INDIANAPOLIS,IN,46254
4102 SHORE DR,INDIANAPOLIS,IN,46254
7404 BLUEBIRD CT,INDIANAPOLIS,IN,46254
2426 BROOKSIDE AVE,INDIANAPOLIS,IN,46218
17 ARSENAL AVE,INDIANAPOLIS,IN,46201
4402 WASHINGTON ST,INDIANAPOLIS,IN,46201
1641 MICHIGAN ST,INDIANAPOLIS,IN,46201
2179 BLUFF AVE,INDIANAPOLIS,IN,46225
2012 TIPTON ST,INDIANAPOLIS,IN,46218
3547 MASSACHUSETTS AVE,INDIANAPOLIS,IN,46218
2121 SHELDON ST,INDIANAPOLIS,IN,46218
1212 25TH ST,INDIANAPOLIS,IN,46205
2805 COLUMBIA AVE,INDIANAPOLIS,IN,46205
1221 PENNSYLVANIA ST,INDIANAPOLIS,IN,46202
1833 NEW JERSEY ST,INDIANAPOLIS,IN,46202
144 16TH ST,INDIANAPOLIS,IN,46202
2157 TALBOTT ST,INDIANAPOLIS,IN,46202
2204 DUKE ST,INDIANAPOLIS,IN,46205
704 32ND ST,INDIANAPOLIS,IN,46205
1030 ROACHE ST,INDIANAPOLIS,IN,46208
1202 EUGENE ST,INDIANAPOLIS,IN,46208
2435 BARNES AVE,INDIANAPOLIS,IN,46208
2951 CLIFTON ST,INDIANAPOLIS,IN,46208
2602 HARDING ST,INDIANAPOLIS,IN,46208
2621 DR M L KING JR ST,INDIANAPOLIS,IN,46208
430 FALL CREEK BLVD,INDIANAPOLIS,IN,46208
5130 38TH ST,INDIANAPOLIS,IN,46254
5320 38TH ST,INDIANAPOLIS,IN,46254
3919 LAFAYETTE RD,INDIANAPOLIS,IN,46254
5318 38TH ST,INDIANAPOLIS,IN,46254
4920 38TH ST,INDIANAPOLIS,IN,46254
3899 GEORGETOWN RD,INDIANAPOLIS,IN,46254
5358 38TH ST,INDIANAPOLIS,IN,46254
3970 LAFAYETTE RD,INDIANAPOLIS,IN,46254
5052 38TH ST,INDIANAPOLIS,IN,46254
5052 38TH ST,INDIANAPOLIS,IN,46254
3840 LAFAYETTE RD,INDIANAPOLIS,IN,46254
5333 PIKE PLAZA RD,INDIANAPOLIS,IN,46254
5302 WASHINGTON ST,INDIANAPOLIS,IN,46241
350 FULLER DR,INDIANAPOLIS,IN,46224
4950 WASHINGTON ST,INDIANAPOLIS,IN,46241
5420 SOUTHERN AVE,INDIANAPOLIS,IN,46241
2334 PRODUCTION DR,INDIANAPOLIS,IN,46241
3433 16TH ST,INDIANAPOLIS,IN,46222
3647 16TH ST,INDIANAPOLIS,IN,46222
2429 17TH ST,INDIANAPOLIS,IN,46222
6320 34TH ST,INDIANAPOLIS,IN,46224
4002 HIGH SCHOOL RD,INDIANAPOLIS,IN,46254
3920 HIGH SCHOOL RD,INDIANAPOLIS,IN,46254
5510 38TH ST,INDIANAPOLIS,IN,46254
6440 34TH ST,INDIANAPOLIS,IN,46224
5635 38TH ST,INDIANAPOLIS,IN,46254
4141 HIGH SCHOOL RD,INDIANAPOLIS,IN,46254
6450 GATEWAY DR,INDIANAPOLIS,IN,46254
5879 CENTRAL AVE,INDIANAPOLIS,IN,46220
5201 COLLEGE AVE,INDIANAPOLIS,IN,46220
1402 86TH ST,INDIANAPOLIS,IN,46240
2130 86TH ST,INDIANAPOLIS,IN,46260
6433 WASHINGTON ST,INDIANAPOLIS,IN,46219
5747 WASHINGTON ST,INDIANAPOLIS,IN,46219
5333 WASHINGTON ST,INDIANAPOLIS,IN,46219
3624 KEYSTONE AVE,INDIANAPOLIS,IN,46227
3029 SHELBY ST,INDIANAPOLIS,IN,46227
1910 STOP 13 RD,INDIANAPOLIS,IN,46227
5021 KENTUCKY AVE,INDIANAPOLIS,IN,46221
3115 MADISON AVE,INDIANAPOLIS,IN,46227
2601 DENISON ST,INDIANAPOLIS,IN,46241
2850 LYNHURST DR,INDIANAPOLIS,IN,46241
2920 SHELBY ST,INDIANAPOLIS,IN,46203
102 BELMAR AVE,INDIANAPOLIS,IN,46219
2901 KENWOOD AVE,INDIANAPOLIS,IN,46208
2900 62ND ST,INDIANAPOLIS,IN,46220
2620 KESSLER BLVD EDR,INDIANAPOLIS,IN,46220
3818 PROSPECT ST,INDIANAPOLIS,IN,46203
5160 65TH ST,INDIANAPOLIS,IN,46220
7035 WESTERN SELECT DR,INDIANAPOLIS,IN,46219
1904 BROAD RIPPLE AVE,INDIANAPOLIS,IN,46220
6185 GUILFORD AVE,INDIANAPOLIS,IN,46220
6507 COLLEGE AVE,INDIANAPOLIS,IN,46220
909 MAIN ST,INDIANAPOLIS,IN,46220
823 WESTFIELD BLVD,INDIANAPOLIS,IN,46220
820 64TH ST,INDIANAPOLIS,IN,46220
6552 CORNELL AVE,INDIANAPOLIS,IN,46220
850 BROAD RIPPLE AVE,INDIANAPOLIS,IN,46220
804 BROAD RIPPLE AVE,INDIANAPOLIS,IN,46220
6543 FERGUSON ST,INDIANAPOLIS,IN,46220
1305 BROAD RIPPLE AVE,INDIANAPOLIS,IN,46220
6050 MERIDIAN ST,INDIANAPOLIS,IN,46208
6410 FERGUSON ST,INDIANAPOLIS,IN,46220
6357 GUILFORD AVE,INDIANAPOLIS,IN,46220
6281 COLLEGE AVE,INDIANAPOLIS,IN,46220
5602 ILLINOIS ST,INDIANAPOLIS,IN,46208
8550 EVERGREEN AVE,INDIANAPOLIS,IN,46240
6751 CLARA ST,INDIANAPOLIS,IN,46250
8541 BASH ST,INDIANAPOLIS,IN,46250
6330 CASTLEPLACE DR,INDIANAPOLIS,IN,46250
7110 10TH ST,INDIANAPOLIS,IN,46214
7507 ROCKVILLE RD,INDIANAPOLIS,IN,46214
55 HIGH SCHOOL RD,INDIANAPOLIS,IN,46241
1788 HAYNES AVE,INDIANAPOLIS,IN,46240
3841 82ND ST,INDIANAPOLIS,IN,46240
9505 DELEGATES ROW,INDIANAPOLIS,IN,46240
8487 UNION CHAPEL RD,INDIANAPOLIS,IN,46240
8800 RIVER CROSSING BLVD,INDIANAPOLIS,IN,46240
2135 FOX HILL DR,INDIANAPOLIS,IN,46228
5323 LADYWOOD KNOLL PL,INDIANAPOLIS,IN,46226
1211 DR M L KING JR ST,INDIANAPOLIS,IN,46202
239 MICHIGAN ST,INDIANAPOLIS,IN,46204
20 LOUISIANA ST,INDIANAPOLIS,IN,46225
802 WEST ST,INDIANAPOLIS,IN,46225
627 PENNSYLVANIA ST,INDIANAPOLIS,IN,46204
102 COLLEGE AVE,INDIANAPOLIS,IN,46202
220 MERIDIAN ST,INDIANAPOLIS,IN,46204
863 MASSACHUSETTS AVE,INDIANAPOLIS,IN,46204
227 MCCARTY ST,INDIANAPOLIS,IN,46225
1901 LINDEN ST,INDIANAPOLIS,IN,46203
7001 46TH ST,INDIANAPOLIS,IN,46254
6943 38TH ST,INDIANAPOLIS,IN,46254
8135 CRAWFORDSVILLE RD,INDIANAPOLIS,IN,46214
2647 WATERFRONT PKWY EDR,INDIANAPOLIS,IN,46214
1203 ROOSEVELT AVE,INDIANAPOLIS,IN,46202
1638 SHELBY ST,INDIANAPOLIS,IN,46203
1549 MADISON AVE,INDIANAPOLIS,IN,46225
2730 COLUMBIA AVE,INDIANAPOLIS,IN,46205
2260 ARSENAL AVE,INDIANAPOLIS,IN,46218
4958 RIBBLE RD,INDIANAPOLIS,IN,46218
3243 SHERMAN DR,INDIANAPOLIS,IN,46218
2435 STATION ST,INDIANAPOLIS,IN,46218
1902 HILLSIDE AVE,INDIANAPOLIS,IN,46218
2349 KEYSTONE WAY,INDIANAPOLIS,IN,46218
1551 ILLINOIS ST,INDIANAPOLIS,IN,46202
2140 CENTRAL AVE,INDIANAPOLIS,IN,46202
1557 CENTRAL AVE,INDIANAPOLIS,IN,46202
1660 BELLEFONTAINE ST,INDIANAPOLIS,IN,46202
1905 COLLEGE AVE,INDIANAPOLIS,IN,46202
717 25TH ST,INDIANAPOLIS,IN,46205
1935 CAPITOL AVE,INDIANAPOLIS,IN,46202
5561 KEYSTONE AVE,INDIANAPOLIS,IN,46220
1635 GENT AVE,INDIANAPOLIS,IN,46202
630 28TH ST,INDIANAPOLIS,IN,46208
2701 CALIFORNIA ST,INDIANAPOLIS,IN,46208
4404 GUION RD,INDIANAPOLIS,IN,46254
5199 LAFAYETTE RD,INDIANAPOLIS,IN,46254
5034 LAFAYETTE RD,INDIANAPOLIS,IN,46254
5198 LAFAYETTE RD,INDIANAPOLIS,IN,46254
5202 LAFAYETTE RD,INDIANAPOLIS,IN,46254
5350 WETHERBY CT,INDIANAPOLIS,IN,46254
4853 56TH ST,INDIANAPOLIS,IN,46254
5585 GEORGETOWN RD,INDIANAPOLIS,IN,46254
4860 56TH ST,INDIANAPOLIS,IN,46254
5580 GEORGETOWN RD,INDIANAPOLIS,IN,46254
5472 GEORGETOWN RD,INDIANAPOLIS,IN,46254
5669 YORKVILLE CT,INDIANAPOLIS,IN,46254
4470 56TH ST,INDIANAPOLIS,IN,46254
5943 LAFAYETTE RD,INDIANAPOLIS,IN,46254
4020 LAFAYETTE RD,INDIANAPOLIS,IN,46254
4233 LAFAYETTE RD,INDIANAPOLIS,IN,46254
3919 LAFAYETTE RD,INDIANAPOLIS,IN,46254
4574 LAFAYETTE RD,INDIANAPOLIS,IN,46254
4901 CENTURY PLAZA RD,INDIANAPOLIS,IN,46254
3919 LAFAYETTE RD,INDIANAPOLIS,IN,46254
4141 OFFICE PLAZA BLVD,INDIANAPOLIS,IN,46254
4411 GEORGETOWN RD,INDIANAPOLIS,IN,46254
4500 LAFAYETTE RD,INDIANAPOLIS,IN,46254
5045 PIKE PLAZA RD,INDIANAPOLIS,IN,46254
4557 LAFAYETTE RD,INDIANAPOLIS,IN,46254
4420 LAFAYETTE RD,INDIANAPOLIS,IN,46254
4525 LAFAYETTE RD,INDIANAPOLIS,IN,46254
4903 CENTURY PLAZA RD,INDIANAPOLIS,IN,46254
4615 LAFAYETTE RD,INDIANAPOLIS,IN,46254
5720 WASHINGTON ST,INDIANAPOLIS,IN,46241
4610 WASHINGTON ST,INDIANAPOLIS,IN,46241
4731 WASHINGTON ST,INDIANAPOLIS,IN,46241
3011 MORRIS ST,INDIANAPOLIS,IN,46241
2017 MORRIS ST,INDIANAPOLIS,IN,46221
2545 MORRIS ST,INDIANAPOLIS,IN,46221
1058 MILEY AVE,INDIANAPOLIS,IN,46222
2202 MICHIGAN ST,INDIANAPOLIS,IN,46222
3564 LAFAYETTE RD,INDIANAPOLIS,IN,46222
3612 30TH ST,INDIANAPOLIS,IN,46222
2320 16TH ST,INDIANAPOLIS,IN,46222
2441 LAFAYETTE RD,INDIANAPOLIS,IN,46222
3902 GLEN ARM RD,INDIANAPOLIS,IN,46254
3409 HIGH SCHOOL RD,INDIANAPOLIS,IN,46224
6005 52ND ST,INDIANAPOLIS,IN,46254
6001 52ND ST,INDIANAPOLIS,IN,46254
3355 HIGH SCHOOL RD,INDIANAPOLIS,IN,46224
8722 MERIDIAN ST,INDIANAPOLIS,IN,46260
9245 MERIDIAN ST,INDIANAPOLIS,IN,46260
9245 MERIDIAN ST,INDIANAPOLIS,IN,46260
1426 86TH ST,INDIANAPOLIS,IN,46240
1402 86TH ST,INDIANAPOLIS,IN,46240
9420 33RD ST,INDIANAPOLIS,IN,46235
5560 BROOKVILLE RD,INDIANAPOLIS,IN,46219
441 RITTER AVE,INDIANAPOLIS,IN,46219
7202 WASHINGTON ST,INDIANAPOLIS,IN,46219
710 SHORTRIDGE RD,INDIANAPOLIS,IN,46219
5970 SOUTHEASTERN AVE,INDIANAPOLIS,IN,46203
5325 THOMPSON RD,INDIANAPOLIS,IN,46237
5230 THOMPSON RD,INDIANAPOLIS,IN,46237
4915 SHELBYVILLE RD,INDIANAPOLIS,IN,46237
4801 SHELBYVILLE RD,INDIANAPOLIS,IN,46237
5401 THOMPSON RD,INDIANAPOLIS,IN,46237
5201 THOMPSON RD,INDIANAPOLIS,IN,46237
4035 WEAVER AVE,INDIANAPOLIS,IN,46227
6300 EAST ST,INDIANAPOLIS,IN,46227
7667 SHELBY ST,INDIANAPOLIS,IN,46227
7830 MC FARLAND BLVD,INDIANAPOLIS,IN,46237
7960 US 31 INDIANAPOLIS,IN,46227
5445 BLUFF RD,INDIANAPOLIS,IN,46217
5449 HARDING ST,INDIANAPOLIS,IN,46217
2917 KENTUCKY AVE,INDIANAPOLIS,IN,46221
4400 MERIDIAN ST,INDIANAPOLIS,IN,46217
1010 SUMNER AVE,INDIANAPOLIS,IN,46227
3603 MERIDIAN ST,INDIANAPOLIS,IN,46217
2755 MC CLURE ST,INDIANAPOLIS,IN,46241
1110 TROY AVE,INDIANAPOLIS,IN,46203
2628 SHELBY ST,INDIANAPOLIS,IN,46203
3363 CAPITOL AVE,INDIANAPOLIS,IN,46208
6655 WASHINGTON ST,INDIANAPOLIS,IN,46241
7001 WASHINGTON ST,INDIANAPOLIS,IN,46241
6801 HAWTHORN PARK DR,INDIANAPOLIS,IN,46220
5485 82ND ST,INDIANAPOLIS,IN,46250
4327 HIGH SCHOOL RD,INDIANAPOLIS,IN,46241
6111 HANNA AVE,INDIANAPOLIS,IN,46241
2994 ARLINGTON AVE,INDIANAPOLIS,IN,46218
3619 ARLINGTON AVE,INDIANAPOLIS,IN,46218
3401 SHADELAND AVE,INDIANAPOLIS,IN,46226
2370 SHADELAND AVE,INDIANAPOLIS,IN,46219
3740 62ND ST,INDIANAPOLIS,IN,46268
6214 MORENCI TRAIL,INDIANAPOLIS,IN,46268
6266 MORENCI TRAIL,INDIANAPOLIS,IN,46268
6354 FAITH CIR,INDIANAPOLIS,IN,46268
6223 GUILFORD AVE,INDIANAPOLIS,IN,46220
6202 COLLEGE AVE,INDIANAPOLIS,IN,46220
6542 WESTFIELD BLVD,INDIANAPOLIS,IN,46220
701 BROAD RIPPLE AVE,INDIANAPOLIS,IN,46220
819 64TH ST,INDIANAPOLIS,IN,46220
720 65TH ST,INDIANAPOLIS,IN,46220
820 WESTFIELD BLVD,INDIANAPOLIS,IN,46220
927 WESTFIELD BLVD,INDIANAPOLIS,IN,46220
924 WESTFIELD BLVD,INDIANAPOLIS,IN,46220
6360 GUILFORD AVE,INDIANAPOLIS,IN,46220
119 56TH ST,INDIANAPOLIS,IN,46208
6501 MERIDIAN ST,INDIANAPOLIS,IN,46260
8111 CENTER RUN RD,INDIANAPOLIS,IN,46250
6725 82ND ST,INDIANAPOLIS,IN,46250
8232 ALLISONVILLE RD,INDIANAPOLIS,IN,46250
8130 SUMMIT HILL DR,INDIANAPOLIS,IN,46250
6804 82ND ST,INDIANAPOLIS,IN,46250
6650 WASHINGTON ST,INDIANAPOLIS,IN,46241
7310 ROCKVILLE RD,INDIANAPOLIS,IN,46214
6658 WASHINGTON ST,INDIANAPOLIS,IN,46241
7204 QUEENSBURY CT,INDIANAPOLIS,IN,46214
600 HIGH SCHOOL RD,INDIANAPOLIS,IN,46214
7224 10TH ST,INDIANAPOLIS,IN,46214
7387 KEYSTONE AVE,INDIANAPOLIS,IN,46240
7435 KEYSTONE AVE,INDIANAPOLIS,IN,46240
8630 KEYSTONE CROSSING,INDIANAPOLIS,IN,46240
9265 COUNSELORS ROW,INDIANAPOLIS,IN,46240
9250 CRAWFORDSVILLE RD,INDIANAPOLIS,IN,46234
6305 LAFAYETTE RD,INDIANAPOLIS,IN,46278
6014 MICHIGAN RD,INDIANAPOLIS,IN,46228
600 70TH ST,INDIANAPOLIS,IN,46260
5322 LADYWOOD KNOLL LN,INDIANAPOLIS,IN,46226
5337 LADYWOOD KNOLL PL,INDIANAPOLIS,IN,46226
6825 GRAHAM RD,INDIANAPOLIS,IN,46220
819 EAST ST,INDIANAPOLIS,IN,46225
439 MCCARTY ST,INDIANAPOLIS,IN,46225
620 CAPITOL AVE,INDIANAPOLIS,IN,46204
520 INDIANA AVE,INDIANAPOLIS,IN,46202
952 FORT WAYNE AVE,INDIANAPOLIS,IN,46202
952 FORT WAYNE AVE,INDIANAPOLIS,IN,46202
952 FORT WAYNE AVE,INDIANAPOLIS,IN,46202
952 FORT WAYNE AVE,INDIANAPOLIS,IN,46202
8 LOUISIANA ST,INDIANAPOLIS,IN,46225
718 SHELBY ST,INDIANAPOLIS,IN,46203
828 SHELBY ST,INDIANAPOLIS,IN,46203
2201 SHERMAN DR,INDIANAPOLIS,IN,46203
3410 RAYMOND ST,INDIANAPOLIS,IN,46203
2930 WATERFRONT PKWY WDR,INDIANAPOLIS,IN,46214
305 SHERMAN DR,INDIANAPOLIS,IN,46201
916 MICHIGAN ST,INDIANAPOLIS,IN,46202
4107 NEW YORK ST,INDIANAPOLIS,IN,46201
4016 WASHINGTON ST,INDIANAPOLIS,IN,46201
4001 MICHIGAN ST,INDIANAPOLIS,IN,46201
1836 10TH ST,INDIANAPOLIS,IN,46201
932 WASHINGTON ST,INDIANAPOLIS,IN,46202
700 MORRIS ST,INDIANAPOLIS,IN,46225
1427 MADISON AVE,INDIANAPOLIS,IN,46225
1441 MADISON AVE,INDIANAPOLIS,IN,46225
2013 MADISON AVE,INDIANAPOLIS,IN,46225
2810 COLUMBIA AVE,INDIANAPOLIS,IN,46205
3634 ROOSEVELT AVE,INDIANAPOLIS,IN,46218
2325 HOVEY ST,INDIANAPOLIS,IN,46218
2450 ARSENAL AVE,INDIANAPOLIS,IN,46218
3360 KEYSTONE AVE,INDIANAPOLIS,IN,46218
1566 COLUMBIA AVE,INDIANAPOLIS,IN,46202
2939 COLUMBIA AVE,INDIANAPOLIS,IN,46205
1902 38TH ST,INDIANAPOLIS,IN,46218
3939 MEADOWS DR,INDIANAPOLIS,IN,46205
2402 38TH ST,INDIANAPOLIS,IN,46218
4025 MEADOWS PKWY,INDIANAPOLIS,IN,46205
4180 KEYSTONE AVE,INDIANAPOLIS,IN,46205
2416 38TH ST,INDIANAPOLIS,IN,46218
2402 38TH ST,INDIANAPOLIS,IN,46218
2501 38TH ST,INDIANAPOLIS,IN,46218
3740 KEYSTONE AVE,INDIANAPOLIS,IN,46218
2419 38TH ST,INDIANAPOLIS,IN,46218
1030 19TH ST,INDIANAPOLIS,IN,46202
1224 CAPITOL AVE,INDIANAPOLIS,IN,46202
2291 MERIDIAN ST,INDIANAPOLIS,IN,46208
2421 CENTRAL AVE,INDIANAPOLIS,IN,46205
2505 COLLEGE AVE,INDIANAPOLIS,IN,46205
2010 CAPITOL AVE,INDIANAPOLIS,IN,46202
2414 CAPITOL AVE,INDIANAPOLIS,IN,46208
5451 EMERSON WAY,INDIANAPOLIS,IN,46226
2520 46TH ST,INDIANAPOLIS,IN,46205
2500 46TH ST,INDIANAPOLIS,IN,46205
2525 56TH ST,INDIANAPOLIS,IN,46220
2326 44TH ST,INDIANAPOLIS,IN,46205
2214 44TH ST,INDIANAPOLIS,IN,46205
655 29TH ST,INDIANAPOLIS,IN,46208
507 26TH ST,INDIANAPOLIS,IN,46208
2735 DR M L KING JR ST,INDIANAPOLIS,IN,46208
1353 UDELL ST,INDIANAPOLIS,IN,46208
1426 29TH ST,INDIANAPOLIS,IN,46208
1426 29TH ST,INDIANAPOLIS,IN,46208
2701 CALIFORNIA ST,INDIANAPOLIS,IN,46208
2907 DR M L KING JR ST,INDIANAPOLIS,IN,46208
5510 LAFAYETTE RD,INDIANAPOLIS,IN,46254
5525 GEORGETOWN RD,INDIANAPOLIS,IN,46254
4420 56TH ST,INDIANAPOLIS,IN,46254
5665 GEORGETOWN RD,INDIANAPOLIS,IN,46254
4444 56TH ST,INDIANAPOLIS,IN,46254
5980 LAFAYETTE RD,INDIANAPOLIS,IN,46254
6010 62ND ST,INDIANAPOLIS,IN,46278
4050 ROCKVILLE RD,INDIANAPOLIS,IN,46222
4902 WASHINGTON ST,INDIANAPOLIS,IN,46241
35 LYNHURST DR,INDIANAPOLIS,IN,46224
530 TAFT AVE,INDIANAPOLIS,IN,46241
4420 WASHINGTON ST,INDIANAPOLIS,IN,46241
4401 STOUT FIELD SDR,INDIANAPOLIS,IN,46241
5250 BRADBURY AVE,INDIANAPOLIS,IN,46241
2538 HOWARD ST,INDIANAPOLIS,IN,46221
915 SOMERSET AVE,INDIANAPOLIS,IN,46241
1170 KENTUCKY AVE,INDIANAPOLIS,IN,46221
3662 MORRIS ST,INDIANAPOLIS,IN,46241
1176 KENTUCKY AVE,INDIANAPOLIS,IN,46221
3120 MORRIS ST,INDIANAPOLIS,IN,46241
3055 16TH ST,INDIANAPOLIS,IN,46222
1941 ST CLAIR ST,INDIANAPOLIS,IN,46222
2323 10TH ST,INDIANAPOLIS,IN,46222
2447 14TH ST,INDIANAPOLIS,IN,46222
5408 34TH ST,INDIANAPOLIS,IN,46224
3616 16TH ST,INDIANAPOLIS,IN,46222
4647 38TH ST,INDIANAPOLIS,IN,46254
3909 COLLEGE AVE,INDIANAPOLIS,IN,46205
9040 MERIDIAN ST,INDIANAPOLIS,IN,46260
8060 SHADELAND AVE,INDIANAPOLIS,IN,46250
9325 33RD ST,INDIANAPOLIS,IN,46235
3020 POST RD,INDIANAPOLIS,IN,46226
9325 33RD ST,INDIANAPOLIS,IN,46235
9200 33RD ST,INDIANAPOLIS,IN,46235
8550 30TH ST,INDIANAPOLIS,IN,46219
6117 WASHINGTON ST,INDIANAPOLIS,IN,46219
471 RITTER AVE,INDIANAPOLIS,IN,46219
5541 WASHINGTON ST,INDIANAPOLIS,IN,46219
2025 RAMA PL,INDIANAPOLIS,IN,46219
1940 CAMPBELL AVE,INDIANAPOLIS,IN,46218
6020 21ST ST,INDIANAPOLIS,IN,46219
2502 ARLINGTON AVE,INDIANAPOLIS,IN,46218
8640 BROOKVILLE RD,INDIANAPOLIS,IN,46239
8809 WASHINGTON ST,INDIANAPOLIS,IN,46219
9440 BURK RD,INDIANAPOLIS,IN,46219
1000 KITLEY AVE,INDIANAPOLIS,IN,46203
8855 SOUTHEASTERN AVE,INDIANAPOLIS,IN,46239
4040 THOMPSON RD,INDIANAPOLIS,IN,46237
5149 VICTORY DR,INDIANAPOLIS,IN,46203
4855 EMERSON AVE,INDIANAPOLIS,IN,46203
4541 EMERSON AVE,INDIANAPOLIS,IN,46203
3043 KEYSTONE AVE,INDIANAPOLIS,IN,46237
3001 CARSON AVE,INDIANAPOLIS,IN,46227
5001 MADISON AVE,INDIANAPOLIS,IN,46227
6447 EAST ST,INDIANAPOLIS,IN,46227
8245 US 31 INDIANAPOLIS,IN,46227
8245 US 31 INDIANAPOLIS,IN,46227
7247 US 31 INDIANAPOLIS,IN,46227
7830 MERIDIAN ST,INDIANAPOLIS,IN,46217
8003 MERIDIAN ST,INDIANAPOLIS,IN,46217
1429 HARDING CT,INDIANAPOLIS,IN,46217
4300 WICKER RD,INDIANAPOLIS,IN,46217
5802 FLIGHT SCHOOL DR,INDIANAPOLIS,IN,46221
2351 KENTUCKY AVE,INDIANAPOLIS,IN,46221
4540 MADISON AVE,INDIANAPOLIS,IN,46227
3501 MADISON AVE,INDIANAPOLIS,IN,46227
3331 ARBOR ST,INDIANAPOLIS,IN,46217
4108 MADISON AVE,INDIANAPOLIS,IN,46227
3002 MADISON AVE,INDIANAPOLIS,IN,46227
4119 LYNHURST DR,INDIANAPOLIS,IN,46221
3752 KENTUCKY AVE,INDIANAPOLIS,IN,46221
3535 KENTUCKY AVE,INDIANAPOLIS,IN,46221
2886 CARSON AVE,INDIANAPOLIS,IN,46203
2722 MADISON AVE,INDIANAPOLIS,IN,46225
2602 MADISON AVE,INDIANAPOLIS,IN,46225
1006 GARFIELD DR,INDIANAPOLIS,IN,46203
2884 CARSON AVE,INDIANAPOLIS,IN,46203
9470 WASHINGTON ST,INDIANAPOLIS,IN,46229
2141 MITTHOEFER RD,INDIANAPOLIS,IN,46229
2102 MITTHOEFER RD,INDIANAPOLIS,IN,46229
9460 WASHINGTON ST,INDIANAPOLIS,IN,46229
40 POST RD,INDIANAPOLIS,IN,46219
8250 WASHINGTON ST,INDIANAPOLIS,IN,46219
3363 CAPITOL AVE,INDIANAPOLIS,IN,46208
380 FALL CREEK BLVD,INDIANAPOLIS,IN,46208
6509 KEYSTONE AVE,INDIANAPOLIS,IN,46220
3843 WASHINGTON ST,INDIANAPOLIS,IN,46201
3452 PROSPECT ST,INDIANAPOLIS,IN,46203
442 RURAL ST,INDIANAPOLIS,IN,46201
2900 PROSPECT ST,INDIANAPOLIS,IN,46203
7337 WASHINGTON ST,INDIANAPOLIS,IN,46231
1449 HIGH SCHOOL RD,INDIANAPOLIS,IN,46241
6820 MINNESOTA ST,INDIANAPOLIS,IN,46241
6707 WASHINGTON ST,INDIANAPOLIS,IN,46241
6659 WASHINGTON ST,INDIANAPOLIS,IN,46241
6468 RUCKER RD,INDIANAPOLIS,IN,46220
6464 RUCKER RD,INDIANAPOLIS,IN,46220
5850 71ST ST,INDIANAPOLIS,IN,46220
5640 71ST ST,INDIANAPOLIS,IN,46220
4411 HIGH SCHOOL RD,INDIANAPOLIS,IN,46241
6901 PENDLETON PIKE,INDIANAPOLIS,IN,46226
4705 71ST ST,INDIANAPOLIS,IN,46268
7202 MICHIGAN RD,INDIANAPOLIS,IN,46268
6950 MICHIGAN RD,INDIANAPOLIS,IN,46268
7108 COFFMAN RD,INDIANAPOLIS,IN,46268
4475 71ST ST,INDIANAPOLIS,IN,46268
6101 COLLEGE AVE,INDIANAPOLIS,IN,46220
810 BROAD RIPPLE AVE,INDIANAPOLIS,IN,46220
6507 FERGUSON ST,INDIANAPOLIS,IN,46220
6320 GUILFORD AVE,INDIANAPOLIS,IN,46220
6319 GUILFORD AVE,INDIANAPOLIS,IN,46220
810 BROAD RIPPLE AVE,INDIANAPOLIS,IN,46220
6344 CORNELL AVE,INDIANAPOLIS,IN,46220
5202 ILLINOIS ST,INDIANAPOLIS,IN,46208
1103 86TH ST,INDIANAPOLIS,IN,46240
8705 CASTLE CREEK PKWY EDR,INDIANAPOLIS,IN,46250
8525 CASTLETON SQUARE DR,INDIANAPOLIS,IN,46250
5612 CASTLETON CORNER WAY,INDIANAPOLIS,IN,46250
8123 CASTLETON RD,INDIANAPOLIS,IN,46250
7310 MORRIS ST,INDIANAPOLIS,IN,46231
8805 ROCKVILLE RD,INDIANAPOLIS,IN,46234
6692 WASHINGTON ST,INDIANAPOLIS,IN,46241
118 GIRLS SCHOOL RD,INDIANAPOLIS,IN,46231
7022 10TH ST,INDIANAPOLIS,IN,46214
8805 ROCKVILLE RD,INDIANAPOLIS,IN,46234
6443 10TH ST,INDIANAPOLIS,IN,46214
101 GIRLS SCHOOL RD,INDIANAPOLIS,IN,46214
6654 WASHINGTON ST,INDIANAPOLIS,IN,46241
1055 GIRLS SCHOOL RD,INDIANAPOLIS,IN,46214
1041 GIRLS SCHOOL RD,INDIANAPOLIS,IN,46214
7220 10TH ST,INDIANAPOLIS,IN,46214
9004 10TH ST,INDIANAPOLIS,IN,46234
8501 WESTFIELD BLVD,INDIANAPOLIS,IN,46240
6804 EVANSTON AVE,INDIANAPOLIS,IN,46220
6840 EVANSTON AVE,INDIANAPOLIS,IN,46220
9365 COUNSELORS ROW,INDIANAPOLIS,IN,46240
1981 56TH ST,INDIANAPOLIS,IN,46220
1981 56TH ST,INDIANAPOLIS,IN,46220
1981 56TH ST,INDIANAPOLIS,IN,46220
1790 54TH ST,INDIANAPOLIS,IN,46220
3511 POST RD,INDIANAPOLIS,IN,46239
7102 LAKEVIEW PKWY WDR,INDIANAPOLIS,IN,46268
7201 WOODLAND DR,INDIANAPOLIS,IN,46278
6510 TELECOM DR,INDIANAPOLIS,IN,46278
6841 MICHIGAN RD,INDIANAPOLIS,IN,46268
6901 MICHIGAN RD,INDIANAPOLIS,IN,46268
2704 WESTLANE RD,INDIANAPOLIS,IN,46268
5540 MICHIGAN RD,INDIANAPOLIS,IN,46228
6800 PENDLETON PIKE,INDIANAPOLIS,IN,46226
6800 PENDLETON PIKE AVE,INDIANAPOLIS,IN,46226
5324 LADYWOOD KNOLL PL,INDIANAPOLIS,IN,46226
5330 LADYWOOD KNOLL PL,INDIANAPOLIS,IN,46226
5307 LADYWOOD KNOLL LN,INDIANAPOLIS,IN,46226
5306 LADYWOOD KNOLL PL,INDIANAPOLIS,IN,46226
6830 LAKE PLAZA DR,INDIANAPOLIS,IN,46220
547 MARKET ST,INDIANAPOLIS,IN,46202
505 DELAWARE ST,INDIANAPOLIS,IN,46204
1 PENNSYLVANIA ST,INDIANAPOLIS,IN,46204
234 RAY ST,INDIANAPOLIS,IN,46225
535 WEST ST,INDIANAPOLIS,IN,46225
546 MERIDIAN ST,INDIANAPOLIS,IN,46225
1229 DR M L KING JR ST,INDIANAPOLIS,IN,46202
738 ILLINOIS ST,INDIANAPOLIS,IN,46204
929 16TH ST,INDIANAPOLIS,IN,46202
952 FORT WAYNE AVE,INDIANAPOLIS,IN,46202
952 FORT WAYNE AVE,INDIANAPOLIS,IN,46202
952 FORT WAYNE AVE,INDIANAPOLIS,IN,46202
952 FORT WAYNE AVE,INDIANAPOLIS,IN,46202
952 FORT WAYNE AVE,INDIANAPOLIS,IN,46202
624 MISSOURI ST,INDIANAPOLIS,IN,46225
330 COLLEGE AVE,INDIANAPOLIS,IN,46202
823 CHADWICK ST,INDIANAPOLIS,IN,46225
254 STATE AVE,INDIANAPOLIS,IN,46201
1468 ENGLISH AVE,INDIANAPOLIS,IN,46201
1901 LINDEN ST,INDIANAPOLIS,IN,46203
1401 VAN BUREN ST,INDIANAPOLIS,IN,46203
2560 VILLA AVE,INDIANAPOLIS,IN,46203
2137 BEECHER ST,INDIANAPOLIS,IN,46203
3605 TERRACE AVE,INDIANAPOLIS,IN,46203
2237 KEYSTONE AVE,INDIANAPOLIS,IN,46203
2230 SHERMAN DR,INDIANAPOLIS,IN,46203
2458 STATE AVE,INDIANAPOLIS,IN,46203
3402 RAYMOND ST,INDIANAPOLIS,IN,46203
5042 ELLIOTT AVE,INDIANAPOLIS,IN,46201
4808 MICHIGAN ST,INDIANAPOLIS,IN,46201
4111 MICHIGAN ST,INDIANAPOLIS,IN,46201
954 WASHINGTON ST,INDIANAPOLIS,IN,46202
3925 10TH ST,INDIANAPOLIS,IN,46201
4401 LINWOOD CT,INDIANAPOLIS,IN,46201
2834 WASHINGTON ST,INDIANAPOLIS,IN,46201
4101 10TH ST,INDIANAPOLIS,IN,46201
1930 COMMERCE AVE,INDIANAPOLIS,IN,46201
2024 BLUFF AVE,INDIANAPOLIS,IN,46225
201 LINCOLN ST,INDIANAPOLIS,IN,46225
226 LINCOLN ST,INDIANAPOLIS,IN,46225
2110 BLOYD AVE,INDIANAPOLIS,IN,46218
1425 25TH ST,INDIANAPOLIS,IN,46205
2238 RALSTON AVE,INDIANAPOLIS,IN,46218
2405 38TH ST,INDIANAPOLIS,IN,46218
2321 38TH ST,INDIANAPOLIS,IN,46218
4019 KEYSTONE AVE,INDIANAPOLIS,IN,46205
3734 38TH ST,INDIANAPOLIS,IN,46218
4173 KEYSTONE AVE,INDIANAPOLIS,IN,46205
1801 SENATE BLVD,INDIANAPOLIS,IN,46202
1734 PENNSYLVANIA ST,INDIANAPOLIS,IN,46202
1734 PENNSYLVANIA ST,INDIANAPOLIS,IN,46202
2010 CAPITOL AVE,INDIANAPOLIS,IN,46202
1529 ALABAMA ST,INDIANAPOLIS,IN,46202
1529 ALABAMA ST,INDIANAPOLIS,IN,46202
1529 ALABAMA ST,INDIANAPOLIS,IN,46202
1529 ALABAMA ST,INDIANAPOLIS,IN,46202
2245 MERIDIAN ST,INDIANAPOLIS,IN,46208
2010 CAPITOL AVE,INDIANAPOLIS,IN,46202
231 16TH ST,INDIANAPOLIS,IN,46202
2817 55TH PL,INDIANAPOLIS,IN,46220
4305 KEYSTONE AVE,INDIANAPOLIS,IN,46205
4511 ALLISONVILLE RD,INDIANAPOLIS,IN,46205
2121 45TH ST,INDIANAPOLIS,IN,46205
1345 UDELL ST,INDIANAPOLIS,IN,46208
506 25TH ST,INDIANAPOLIS,IN,46208
517 30TH ST,INDIANAPOLIS,IN,46208
1339 UDELL ST,INDIANAPOLIS,IN,46208
510 30TH ST,INDIANAPOLIS,IN,46208
506 26TH ST,INDIANAPOLIS,IN,46208
2357 DR M L KING JR ST,INDIANAPOLIS,IN,46208
551 27TH ST,INDIANAPOLIS,IN,46208
2725 DR M L KING JR ST,INDIANAPOLIS,IN,46208
2357 DR M L KING JR ST,INDIANAPOLIS,IN,46208
2351 LAFAYETTE RD,INDIANAPOLIS,IN,46222
6702 GEORGETOWN RD,INDIANAPOLIS,IN,46268
7018 APOLLO WAY,INDIANAPOLIS,IN,46278
5506 WASHINGTON ST,INDIANAPOLIS,IN,46241
47 BEACHWAY DR,INDIANAPOLIS,IN,46224
25 BEACHWAY DR,INDIANAPOLIS,IN,46224
5383 ROCKVILLE RD,INDIANAPOLIS,IN,46224
4001 WASHINGTON ST,INDIANAPOLIS,IN,46241
3927 WASHINGTON ST,INDIANAPOLIS,IN,46241
4129 WASHINGTON ST,INDIANAPOLIS,IN,46241
4050 MORRIS ST,INDIANAPOLIS,IN,46241
4420 SAM JONES EXPRESSWAY,INDIANAPOLIS,IN,46241
2650 EXECUTIVE DR,INDIANAPOLIS,IN,46241
3230 RAND RD,INDIANAPOLIS,IN,46241
2900 MORRIS ST,INDIANAPOLIS,IN,46241
2920 MORRIS ST,INDIANAPOLIS,IN,46241
3320 MORRIS ST,INDIANAPOLIS,IN,46241
2560 MORRIS ST,INDIANAPOLIS,IN,46221
1224 HARDING ST,INDIANAPOLIS,IN,46221
3351 MORRIS ST,INDIANAPOLIS,IN,46241
412 TREMONT ST,INDIANAPOLIS,IN,46222
2728 WASHINGTON ST,INDIANAPOLIS,IN,46222
1609 GOODLET AVE,INDIANAPOLIS,IN,46222
3136 16TH ST,INDIANAPOLIS,IN,46222
4825 38TH ST,INDIANAPOLIS,IN,46254
3410 GEORGETOWN RD,INDIANAPOLIS,IN,46224
9015 WESTFIELD BLVD,INDIANAPOLIS,IN,46240
1300 86TH ST,INDIANAPOLIS,IN,46240
3002 POST RD,INDIANAPOLIS,IN,46226
3111 POST RD,INDIANAPOLIS,IN,46226
3120 POST RD,INDIANAPOLIS,IN,46226
9145 33RD ST,INDIANAPOLIS,IN,46235
5222 BROOKVILLE RD,INDIANAPOLIS,IN,46219
471 RITTER AVE,INDIANAPOLIS,IN,46219
20 EDMONDSON AVE,INDIANAPOLIS,IN,46219
547 WEBSTER AVE,INDIANAPOLIS,IN,46219
2060 SHADELAND AVE,INDIANAPOLIS,IN,46219
726 SHORTRIDGE RD,INDIANAPOLIS,IN,46219
6855 10TH ST,INDIANAPOLIS,IN,46219
2040 SHADELAND AVE,INDIANAPOLIS,IN,46219
726 SHORTRIDGE RD,INDIANAPOLIS,IN,46219
1398 SHADELAND AVE,INDIANAPOLIS,IN,46219
7041 10TH ST,INDIANAPOLIS,IN,46219
825 KITLEY AVE,INDIANAPOLIS,IN,46219
1170 ARLINGTON AVE,INDIANAPOLIS,IN,46219
1192 ARLINGTON AVE,INDIANAPOLIS,IN,46219
1604 FRANKLIN RD,INDIANAPOLIS,IN,46239
8011 WASHINGTON ST,INDIANAPOLIS,IN,46219
3730 CINDY LN,INDIANAPOLIS,IN,46239
8760 SOUTHEASTERN AVE,INDIANAPOLIS,IN,46239
8800 SOUTHEASTERN AVE,INDIANAPOLIS,IN,46239
5410 VICTORY DR,INDIANAPOLIS,IN,46203
4520 INDEPENDENCE SQUARE,INDIANAPOLIS,IN,46203
5025 THOMPSON RD,INDIANAPOLIS,IN,46237
3212 ST PAUL ST,INDIANAPOLIS,IN,46237
5230 MADISON AVE,INDIANAPOLIS,IN,46227
7377 MADISON AVE,INDIANAPOLIS,IN,46227
7828 MADISON AVE,INDIANAPOLIS,IN,46227
8688 MADISON AVE,INDIANAPOLIS,IN,46227
8110 MADISON AVE,INDIANAPOLIS,IN,46227
8110 MADISON AVE,INDIANAPOLIS,IN,46227
7465 MADISON AVE,INDIANAPOLIS,IN,46227
8220 US 31 INDIANAPOLIS,IN,46227
7816 MADISON AVE,INDIANAPOLIS,IN,46227
6028 MERIDIAN ST,INDIANAPOLIS,IN,46217
8241 BLUFF RD,INDIANAPOLIS,IN,46217
7005 BLUFF RD,INDIANAPOLIS,IN,46217
1345 SOUTHPORT RD,INDIANAPOLIS,IN,46217
1325 THOMPSON RD,INDIANAPOLIS,IN,46217
1215 THOMPSON RD,INDIANAPOLIS,IN,46217
5970 BELMONT AVE,INDIANAPOLIS,IN,46217
2310 SOUTHPORT RD,INDIANAPOLIS,IN,46217
4300 WICKER RD,INDIANAPOLIS,IN,46217
2603 GLENNS VALLEY LN,INDIANAPOLIS,IN,46217
3331 ARBOR ST,INDIANAPOLIS,IN,46217
3015 HARDING ST,INDIANAPOLIS,IN,46217
3331 ARBOR ST,INDIANAPOLIS,IN,46217
3015 CHASE ST,INDIANAPOLIS,IN,46217
4119 LYNHURST DR,INDIANAPOLIS,IN,46221
3740 HANNA CIR,INDIANAPOLIS,IN,46241
4115 HEINEY RD,INDIANAPOLIS,IN,46241
3530 MANN RD,INDIANAPOLIS,IN,46221
3740 KENTUCKY AVE,INDIANAPOLIS,IN,46221
3485 KENTUCKY AVE,INDIANAPOLIS,IN,46221
3129 COLLIER ST,INDIANAPOLIS,IN,46221
5439 SEERLEY RD,INDIANAPOLIS,IN,46241
3059 KENTUCKY AVE,INDIANAPOLIS,IN,46221
3605 KENTUCKY AVE,INDIANAPOLIS,IN,46221
2717 EAST ST,INDIANAPOLIS,IN,46225
2890 CARSON AVE,INDIANAPOLIS,IN,46203
2554 MADISON AVE,INDIANAPOLIS,IN,46225
2830 MADISON AVE,INDIANAPOLIS,IN,46225
2908 CARSON AVE,INDIANAPOLIS,IN,46203
2235 RANSDELL ST,INDIANAPOLIS,IN,46225
8930 10TH ST,INDIANAPOLIS,IN,46219
9013 17TH ST,INDIANAPOLIS,IN,46229
101 FRANKLIN RD,INDIANAPOLIS,IN,46219
8550 WASHINGTON ST,INDIANAPOLIS,IN,46219
8526 WASHINGTON ST,INDIANAPOLIS,IN,46219
8118 WASHINGTON ST,INDIANAPOLIS,IN,46219
8880 WASHINGTON ST,INDIANAPOLIS,IN,46219
8130 WASHINGTON ST,INDIANAPOLIS,IN,46219
317 30TH ST,INDIANAPOLIS,IN,46208
44 33RD ST,INDIANAPOLIS,IN,46208
3739 ILLINOIS ST,INDIANAPOLIS,IN,46208
2629 65TH ST,INDIANAPOLIS,IN,46220
2629 65TH ST,INDIANAPOLIS,IN,46220
502 KEYSTONE AVE,INDIANAPOLIS,IN,46203
3005 WASHINGTON ST,INDIANAPOLIS,IN,46201
6531 WASHINGTON ST,INDIANAPOLIS,IN,46241
5210 64TH ST,INDIANAPOLIS,IN,46220
6106 MASSACHUSETTS AVE,INDIANAPOLIS,IN,46226
5750 30TH ST,INDIANAPOLIS,IN,46218
7401 PENDLETON PIKE,INDIANAPOLIS,IN,46226
6951 30TH ST,INDIANAPOLIS,IN,46219
7355 30TH ST,INDIANAPOLIS,IN,46219
3235 EMERSON AVE,INDIANAPOLIS,IN,46218
6190 MASSACHUSETTS AVE,INDIANAPOLIS,IN,46226
7061 TWIN OAKS DR,INDIANAPOLIS,IN,46226
5405 34TH ST,INDIANAPOLIS,IN,46218
7016 COFFMAN RD,INDIANAPOLIS,IN,46268
7453 DOBSON ST,INDIANAPOLIS,IN,46268
4705 71ST ST,INDIANAPOLIS,IN,46268
7427 DOBSON ST,INDIANAPOLIS,IN,46268
7434 MICHIGAN RD,INDIANAPOLIS,IN,46268
7716 MICHIGAN RD,INDIANAPOLIS,IN,46268
7718 MICHIGAN RD,INDIANAPOLIS,IN,46268
7720 MICHIGAN RD,INDIANAPOLIS,IN,46268
4622 72ND ST,INDIANAPOLIS,IN,46268
7780 MICHIGAN RD,INDIANAPOLIS,IN,46268
7770 MICHIGAN RD,INDIANAPOLIS,IN,46268
3002 RITTER AVE,INDIANAPOLIS,IN,46203
6144 COLLEGE AVE,INDIANAPOLIS,IN,46220
6350 GUILFORD AVE,INDIANAPOLIS,IN,46220
6161 HILLSIDE AVE,INDIANAPOLIS,IN,46220
5500 MERIDIAN ST,INDIANAPOLIS,IN,46208
5602 ILLINOIS ST,INDIANAPOLIS,IN,46208
6001 86TH ST,INDIANAPOLIS,IN,46250
3716 82ND ST,INDIANAPOLIS,IN,46240
8232 ALLISONVILLE RD,INDIANAPOLIS,IN,46250
8720 CASTLE CREEK PKWY EDR,INDIANAPOLIS,IN,46250
6621 82ND ST,INDIANAPOLIS,IN,46250
7301 ROCKVILLE RD,INDIANAPOLIS,IN,46214
6840 WASHINGTON ST,INDIANAPOLIS,IN,46241
6714 ROCKVILLE RD,INDIANAPOLIS,IN,46214
7601 ROCKVILLE RD,INDIANAPOLIS,IN,46214
8616 10TH ST,INDIANAPOLIS,IN,46234
7435 ROCKVILLE RD,INDIANAPOLIS,IN,46214
7172 KEYSTONE AVE,INDIANAPOLIS,IN,46240
7225 RALSTON AVE,INDIANAPOLIS,IN,46240
9380 DELEGATES ROW,INDIANAPOLIS,IN,46240
1827 KESSLER BLVD EDR,INDIANAPOLIS,IN,46220
5350 LAKEVIEW PKWY SDR,INDIANAPOLIS,IN,46268
5835 MICHIGAN RD,INDIANAPOLIS,IN,46228
2620 WESTLANE RD,INDIANAPOLIS,IN,46268
3040 76TH ST,INDIANAPOLIS,IN,46268
7211 MICHIGAN RD,INDIANAPOLIS,IN,46268
4800 MICHIGAN RD,INDIANAPOLIS,IN,46228
5331 LADYWOOD KNOLL LN,INDIANAPOLIS,IN,46226
5313 LADYWOOD KNOLL PL,INDIANAPOLIS,IN,46226
6 WASHINGTON ST,INDIANAPOLIS,IN,46204
838 DELAWARE ST,INDIANAPOLIS,IN,46204
365 ILLINOIS ST,INDIANAPOLIS,IN,46204
409 MASSACHUSETTS AVE,INDIANAPOLIS,IN,46204
20 DELAWARE ST,INDIANAPOLIS,IN,46204
419 WEST ST,INDIANAPOLIS,IN,46225
1099 MERIDIAN ST,INDIANAPOLIS,IN,46204
120 WALNUT ST,INDIANAPOLIS,IN,46204
709 SENATE AVE,INDIANAPOLIS,IN,46202
1101 DELAWARE ST,INDIANAPOLIS,IN,46202
827 SENATE AVE,INDIANAPOLIS,IN,46202
800 SENATE AVE,INDIANAPOLIS,IN,46225
1126 MARYLAND ST,INDIANAPOLIS,IN,46202
1656 ENGLISH AVE,INDIANAPOLIS,IN,46201
1701 ENGLISH AVE,INDIANAPOLIS,IN,46201
1443 PROSPECT ST,INDIANAPOLIS,IN,46203
128 MC KIM AVE,INDIANAPOLIS,IN,46201
1060 VILLA AVE,INDIANAPOLIS,IN,46203
1324 PROSPECT ST,INDIANAPOLIS,IN,46203
1934 PERKINS AVE,INDIANAPOLIS,IN,46203
2860 CHURCHMAN AVE,INDIANAPOLIS,IN,46203
243 STATE AVE,INDIANAPOLIS,IN,46201
2611 MICHIGAN ST,INDIANAPOLIS,IN,46201
930 WASHINGTON ST,INDIANAPOLIS,IN,46202
3019 ROOSEVELT AVE,INDIANAPOLIS,IN,46218
5053 16TH ST,INDIANAPOLIS,IN,46201
5037 10TH ST,INDIANAPOLIS,IN,46201
1510 EMERSON AVE,INDIANAPOLIS,IN,46219
4630 10TH ST,INDIANAPOLIS,IN,46201
201 RURAL ST,INDIANAPOLIS,IN,46201
2180 EAST ST,INDIANAPOLIS,IN,46225
255 MORRIS ST,INDIANAPOLIS,IN,46225
1633 BARTH AVE,INDIANAPOLIS,IN,46203
410 MORRIS ST,INDIANAPOLIS,IN,46225
1321 25TH ST,INDIANAPOLIS,IN,46205
3404 ROOSEVELT AVE,INDIANAPOLIS,IN,46218
2511 34TH ST,INDIANAPOLIS,IN,46218
2734 COLUMBIA AVE,INDIANAPOLIS,IN,46205
2170 ILLINOIS ST,INDIANAPOLIS,IN,46202
1636 BROADWAY ST,INDIANAPOLIS,IN,46202
144 16TH ST,INDIANAPOLIS,IN,46202
1852 TALBOTT ST,INDIANAPOLIS,IN,46202
1502 CENTRAL AVE,INDIANAPOLIS,IN,46202
2143 BOULEVARD PL,INDIANAPOLIS,IN,46202
1331 CAPITOL AVE,INDIANAPOLIS,IN,46202
2049 MERIDIAN ST,INDIANAPOLIS,IN,46202
5155 PENNWOOD DR,INDIANAPOLIS,IN,46205
5435 EMERSON WAY,INDIANAPOLIS,IN,46226
5220 FALL CREEK PKWY NDR,INDIANAPOLIS,IN,46220
4360 KEYSTONE AVE,INDIANAPOLIS,IN,46205
2201 46TH ST,INDIANAPOLIS,IN,46205
2045 46TH ST,INDIANAPOLIS,IN,46205
4930 KEYSTONE AVE,INDIANAPOLIS,IN,46205
3637 MERIDIAN ST,INDIANAPOLIS,IN,46208
1349 UDELL ST,INDIANAPOLIS,IN,46208
517 30TH ST,INDIANAPOLIS,IN,46208
2701 CALIFORNIA ST,INDIANAPOLIS,IN,46208
715 30TH ST,INDIANAPOLIS,IN,46208
2735 DR M L KING JR ST,INDIANAPOLIS,IN,46208
957 EUGENE ST,INDIANAPOLIS,IN,46208
1617 MONTCALM ST,INDIANAPOLIS,IN,46202
4152 WASHINGTON ST,INDIANAPOLIS,IN,46241
4610 WASHINGTON ST,INDIANAPOLIS,IN,46241
4403 WASHINGTON ST,INDIANAPOLIS,IN,46241
5455 BRADBURY AVE,INDIANAPOLIS,IN,46241
3103 MORRIS ST,INDIANAPOLIS,IN,46241
3359 MORRIS ST,INDIANAPOLIS,IN,46241
1003 WHITE RIVER PKWY WDR,INDIANAPOLIS,IN,46221
1425 RAY ST,INDIANAPOLIS,IN,46221
2210 OLIVER AVE,INDIANAPOLIS,IN,46221
2900 MORRIS ST,INDIANAPOLIS,IN,46241
1401 SHEPARD ST,INDIANAPOLIS,IN,46221
1091 KENTUCKY AVE,INDIANAPOLIS,IN,46221
2001 TIBBS AVE,INDIANAPOLIS,IN,46241
1032 HOLMES AVE,INDIANAPOLIS,IN,46221
915 SOMERSET AVE,INDIANAPOLIS,IN,46241
3607 16TH ST,INDIANAPOLIS,IN,46222
543 BERWICK AVE,INDIANAPOLIS,IN,46222
3411 WASHINGTON ST,INDIANAPOLIS,IN,46222
2697 10TH ST,INDIANAPOLIS,IN,46222
3647 16TH ST,INDIANAPOLIS,IN,46222
2525 11TH ST,INDIANAPOLIS,IN,46222
2035 WASHINGTON ST,INDIANAPOLIS,IN,46222
774 KETCHAM ST,INDIANAPOLIS,IN,46222
3416 WASHINGTON ST,INDIANAPOLIS,IN,46222
4021 10TH ST,INDIANAPOLIS,IN,46222
220 BELMONT AVE,INDIANAPOLIS,IN,46222
2116 WALNUT ST,INDIANAPOLIS,IN,46222
1429 MEDFORD AVE,INDIANAPOLIS,IN,46222
2102 LAFAYETTE RD,INDIANAPOLIS,IN,46222
3717 LAFAYETTE RD,INDIANAPOLIS,IN,46222
2440 LAFAYETTE RD,INDIANAPOLIS,IN,46222
3607 30TH ST,INDIANAPOLIS,IN,46222
3711 GEORGETOWN RD,INDIANAPOLIS,IN,46224
3110 LAFAYETTE RD,INDIANAPOLIS,IN,46222
3111 LAFAYETTE RD,INDIANAPOLIS,IN,46222
3680 30TH ST,INDIANAPOLIS,IN,46222
3470 HIGH SCHOOL RD,INDIANAPOLIS,IN,46224
5164 COLLEGE AVE,INDIANAPOLIS,IN,46205
5898 COLLEGE AVE,INDIANAPOLIS,IN,46220
8805 MERIDIAN ST,INDIANAPOLIS,IN,46260
8945 MERIDIAN ST,INDIANAPOLIS,IN,46260
8501 HARCOURT RD,INDIANAPOLIS,IN,46260
9885 FALL CREEK RD,INDIANAPOLIS,IN,46256
9200 33RD ST,INDIANAPOLIS,IN,46235
3710 POST RD,INDIANAPOLIS,IN,46226
9215 33RD ST,INDIANAPOLIS,IN,46235
5501 WASHINGTON ST,INDIANAPOLIS,IN,46219
411 RITTER AVE,INDIANAPOLIS,IN,46219
5264 BROOKVILLE RD,INDIANAPOLIS,IN,46219
5550 BROOKVILLE RD,INDIANAPOLIS,IN,46219
6216 WASHINGTON ST,INDIANAPOLIS,IN,46219
5630 BROOKVILLE RD,INDIANAPOLIS,IN,46219
5956 BROOKVILLE RD,INDIANAPOLIS,IN,46219
6501 WASHINGTON ST,INDIANAPOLIS,IN,46219
6020 BROOKVILLE RD,INDIANAPOLIS,IN,46219
1606 SHADELAND AVE,INDIANAPOLIS,IN,46219
6030 10TH ST,INDIANAPOLIS,IN,46219
8921 TROY AVE,INDIANAPOLIS,IN,46239
6001 SOUTHEASTERN AVE,INDIANAPOLIS,IN,46203
6002 SOUTHEASTERN AVE,INDIANAPOLIS,IN,46203
5565 BROOKVILLE RD,INDIANAPOLIS,IN,46219
7006 SOUTHEASTERN AVE,INDIANAPOLIS,IN,46239
5095 THOMPSON RD,INDIANAPOLIS,IN,46237
3001 SHELBY ST,INDIANAPOLIS,IN,46227
3115 KEYSTONE AVE,INDIANAPOLIS,IN,46237
602 THOMPSON RD,INDIANAPOLIS,IN,46227
4805 HARDEGAN ST,INDIANAPOLIS,IN,46227
4350 SOUTHPORT RD,INDIANAPOLIS,IN,46237
8445 EMERSON AVE,INDIANAPOLIS,IN,46237
8010 US 31 INDIANAPOLIS,IN,46227
8010 MADISON AVE,INDIANAPOLIS,IN,46227
8800 MADISON AVE,INDIANAPOLIS,IN,46227
7521 US 31 INDIANAPOLIS,IN,46227
1405 THOMPSON RD,INDIANAPOLIS,IN,46217
2655 KENTUCKY AVE,INDIANAPOLIS,IN,46221
3806 MADISON AVE,INDIANAPOLIS,IN,46227
3931 EAST ST,INDIANAPOLIS,IN,46227
3808 SHELBY ST,INDIANAPOLIS,IN,46227
4006 EAST ST,INDIANAPOLIS,IN,46227
901 TROY AVE,INDIANAPOLIS,IN,46203
468 NATIONAL AVE,INDIANAPOLIS,IN,46227
3311 EAST ST,INDIANAPOLIS,IN,46227
2814 HOLT RD,INDIANAPOLIS,IN,46241
2722 HOLT RD,INDIANAPOLIS,IN,46241
2892 CARSON AVE,INDIANAPOLIS,IN,46203
1040 TROY AVE,INDIANAPOLIS,IN,46203
2605 SHELBY ST,INDIANAPOLIS,IN,46203
2301 SHELBY ST,INDIANAPOLIS,IN,46203
334 MITTHOEFER RD,INDIANAPOLIS,IN,46229
2135 POST RD,INDIANAPOLIS,IN,46219
9122 10TH ST,INDIANAPOLIS,IN,46219
8910 21ST ST,INDIANAPOLIS,IN,46219
380 FALL CREEK BLVD,INDIANAPOLIS,IN,46208
3140 ILLINOIS ST,INDIANAPOLIS,IN,46208
2850 MERIDIAN ST,INDIANAPOLIS,IN,46208
17 KEYSTONE AVE,INDIANAPOLIS,IN,46201
2817 WASHINGTON ST,INDIANAPOLIS,IN,46201
456 EMERSON AVE,INDIANAPOLIS,IN,46219
6313 WASHINGTON ST,INDIANAPOLIS,IN,46241
8009 WASHINGTON ST,INDIANAPOLIS,IN,46231
6050 RAYMOND ST,INDIANAPOLIS,IN,46241
6313 WASHINGTON ST,INDIANAPOLIS,IN,46241
7800 COL H WEIR COOK MEM DR,INDIANAPOLIS,IN,46241
5030 62ND ST,INDIANAPOLIS,IN,46220
4619 82ND ST,INDIANAPOLIS,IN,46250
7201 PENDLETON PIKE,INDIANAPOLIS,IN,46226
5403 MASSACHUSETTS AVE,INDIANAPOLIS,IN,46218
2850 ARLINGTON AVE,INDIANAPOLIS,IN,46218
6125 38TH ST,INDIANAPOLIS,IN,46226
5602 26TH ST,INDIANAPOLIS,IN,46218
7854 CROOKED MEADOWS DR,INDIANAPOLIS,IN,46268
7940 MICHIGAN RD,INDIANAPOLIS,IN,46268
8302 MICHIGAN RD,INDIANAPOLIS,IN,46268
8401 MICHIGAN RD,INDIANAPOLIS,IN,46268
8290 MICHIGAN RD,INDIANAPOLIS,IN,46268
917 62ND ST,INDIANAPOLIS,IN,46220
5901 COLLEGE AVE,INDIANAPOLIS,IN,46220
6416 CORNELL AVE,INDIANAPOLIS,IN,46220
915 BROAD RIPPLE AVE,INDIANAPOLIS,IN,46220
6055 COLLEGE AVE,INDIANAPOLIS,IN,46220
1402 BROAD RIPPLE AVE,INDIANAPOLIS,IN,46220
8011 CASTLETON RD,INDIANAPOLIS,IN,46250
6103 86TH ST,INDIANAPOLIS,IN,46250
6750 82ND ST,INDIANAPOLIS,IN,46250
8340 KELLY LN,INDIANAPOLIS,IN,46250
7010 WASHINGTON ST,INDIANAPOLIS,IN,46241
44 GIRLS SCHOOL RD,INDIANAPOLIS,IN,46214
6870 WASHINGTON ST,INDIANAPOLIS,IN,46241
8517 WESTFIELD BLVD,INDIANAPOLIS,IN,46240
7501 WESTFIELD BLVD,INDIANAPOLIS,IN,46240
1801 86TH ST,INDIANAPOLIS,IN,46240
7102 KEYSTONE AVE,INDIANAPOLIS,IN,46240
7024 KEYSTONE AVE,INDIANAPOLIS,IN,46220
8701 KEYSTONE CROSSING,INDIANAPOLIS,IN,46240
1790 54TH ST,INDIANAPOLIS,IN,46220
3205 TANSEL RD,INDIANAPOLIS,IN,46234
9015 CRAWFORDSVILLE RD,INDIANAPOLIS,IN,46234
5820 85TH ST,INDIANAPOLIS,IN,46278
4901 86TH ST,INDIANAPOLIS,IN,46268
5455 86TH ST,INDIANAPOLIS,IN,46268
5733 MICHIGAN RD,INDIANAPOLIS,IN,46228
4601 KNOLLTON RD,INDIANAPOLIS,IN,46228
6510 HOOVER RD,INDIANAPOLIS,IN,46260
5335 LADYWOOD KNOLL LN,INDIANAPOLIS,IN,46226
5311 LADYWOOD KNOLL LN,INDIANAPOLIS,IN,46226
6750 75TH ST,INDIANAPOLIS,IN,46250
6296 RUCKER RD,INDIANAPOLIS,IN,46220
6314 RUCKER RD,INDIANAPOLIS,IN,46220
6320 RUCKER RD,INDIANAPOLIS,IN,46220
50 MERIDIAN ST,INDIANAPOLIS,IN,46204
14 MARYLAND ST,INDIANAPOLIS,IN,46204
14 MARYLAND ST,INDIANAPOLIS,IN,46204
401 DELAWARE ST,INDIANAPOLIS,IN,46204
39 09TH ST,INDIANAPOLIS,IN,46204
10 DELAWARE ST,INDIANAPOLIS,IN,46204
733 WEST ST,INDIANAPOLIS,IN,46225
234 DETROIT ST,INDIANAPOLIS,IN,46201
1024 VIRGINIA AVE,INDIANAPOLIS,IN,46203
1531 DELOSS ST,INDIANAPOLIS,IN,46201
1330 DELOSS ST,INDIANAPOLIS,IN,46203
726 STATE AVE,INDIANAPOLIS,IN,46203
802 STATE AVE,INDIANAPOLIS,IN,46203
1015 VIRGINIA AVE,INDIANAPOLIS,IN,46203
1401 PLEASANT RUN PKWY SDR,INDIANAPOLIS,IN,46203
1922 TROY AVE,INDIANAPOLIS,IN,46203
2313 MICHIGAN ST,INDIANAPOLIS,IN,46201
5051 16TH ST,INDIANAPOLIS,IN,46201
2528 MICHIGAN ST,INDIANAPOLIS,IN,46201
1735 WEST ST,INDIANAPOLIS,IN,46225
422 MORRIS ST,INDIANAPOLIS,IN,46225
1910 MERIDIAN ST,INDIANAPOLIS,IN,46225
1401 MERIDIAN ST,INDIANAPOLIS,IN,46225
3415 SHERMAN DR,INDIANAPOLIS,IN,46218
3832 38TH ST,INDIANAPOLIS,IN,46218
2512 GALE ST,INDIANAPOLIS,IN,46218
2413 YANDES ST,INDIANAPOLIS,IN,46205
3353 KEYSTONE AVE,INDIANAPOLIS,IN,46218
1202 23RD ST,INDIANAPOLIS,IN,46205
1802 23RD ST,INDIANAPOLIS,IN,46218
2345 30TH ST,INDIANAPOLIS,IN,46218
2901 TACOMA AVE,INDIANAPOLIS,IN,46218
2815 25TH ST,INDIANAPOLIS,IN,46218
2034 WINTER AVE,INDIANAPOLIS,IN,46218
2031 30TH ST,INDIANAPOLIS,IN,46218
3745 HILLSIDE AVE,INDIANAPOLIS,IN,46218
2135 ALABAMA ST,INDIANAPOLIS,IN,46202
2414 CAPITOL AVE,INDIANAPOLIS,IN,46208
2350 COLLEGE AVE,INDIANAPOLIS,IN,46205
2010 CAPITOL AVE,INDIANAPOLIS,IN,46202
1752 MERIDIAN ST,INDIANAPOLIS,IN,46202
1705 MERIDIAN ST,INDIANAPOLIS,IN,46202
2801 GUILFORD AVE,INDIANAPOLIS,IN,46205
1801 49TH ST,INDIANAPOLIS,IN,46205
2204 DUKE ST,INDIANAPOLIS,IN,46205
1440 46TH ST,INDIANAPOLIS,IN,46205
665 29TH ST,INDIANAPOLIS,IN,46205
3620 WASHINGTON BLVD,INDIANAPOLIS,IN,46205
3326 CLIFTON ST,INDIANAPOLIS,IN,46208
2438 DR M L KING JR ST,INDIANAPOLIS,IN,46208
2701 CALIFORNIA ST,INDIANAPOLIS,IN,46208
504 25TH ST,INDIANAPOLIS,IN,46208
2701 CALIFORNIA ST,INDIANAPOLIS,IN,46208
2735 DR M L KING JR ST,INDIANAPOLIS,IN,46208
2801 DR M L KING JR ST,INDIANAPOLIS,IN,46208
1333 UDELL ST,INDIANAPOLIS,IN,46208
2500 COLD SPRING RD,INDIANAPOLIS,IN,46222
2500 COLD SPRING RD,INDIANAPOLIS,IN,46222
5170 WASHINGTON ST,INDIANAPOLIS,IN,46241
4151 WASHINGTON ST,INDIANAPOLIS,IN,46241
5199 WASHINGTON ST,INDIANAPOLIS,IN,46241
648 FOLTZ ST,INDIANAPOLIS,IN,46241
5638 PROFESSIONAL CIR,INDIANAPOLIS,IN,46241
1428 HENRY ST,INDIANAPOLIS,IN,46221
1030 SOMERSET AVE,INDIANAPOLIS,IN,46241
2120 MORRIS ST,INDIANAPOLIS,IN,46221
2120 MORRIS ST,INDIANAPOLIS,IN,46221
1342 BELMONT AVE,INDIANAPOLIS,IN,46221
1251 TIBBS AVE,INDIANAPOLIS,IN,46241
1627 HOWARD ST,INDIANAPOLIS,IN,46221
964 HOLMES AVE,INDIANAPOLIS,IN,46222
2411 16TH ST,INDIANAPOLIS,IN,46222
927 TRAUB AVE,INDIANAPOLIS,IN,46222
2710 16TH ST,INDIANAPOLIS,IN,46222
4913 34TH PL,INDIANAPOLIS,IN,46224
3002 TIBBS AVE,INDIANAPOLIS,IN,46222
2660 LAFAYETTE RD,INDIANAPOLIS,IN,46222
3500 LAFAYETTE RD,INDIANAPOLIS,IN,46222
2508 16TH ST,INDIANAPOLIS,IN,46222
3602 LAFAYETTE RD,INDIANAPOLIS,IN,46222
3501 LAFAYETTE RD,INDIANAPOLIS,IN,46222
3652 LAFAYETTE RD,INDIANAPOLIS,IN,46222
3460 HIGH SCHOOL RD,INDIANAPOLIS,IN,46224
6340 37TH ST,INDIANAPOLIS,IN,46224
804 38TH ST,INDIANAPOLIS,IN,46205
250 38TH ST,INDIANAPOLIS,IN,46205
4902 PENNSYLVANIA ST,INDIANAPOLIS,IN,46205
3901 MERIDIAN ST,INDIANAPOLIS,IN,46208
8801 MERIDIAN ST,INDIANAPOLIS,IN,46260
9106 MERIDIAN ST,INDIANAPOLIS,IN,46260
9115 HAGUE RD,INDIANAPOLIS,IN,46256
9420 30TH ST,INDIANAPOLIS,IN,46229
9214 33RD ST,INDIANAPOLIS,IN,46235
3350 GERMAN CHURCH RD,INDIANAPOLIS,IN,46235
5302 ENGLISH AVE,INDIANAPOLIS,IN,46219
6020 BROOKVILLE RD,INDIANAPOLIS,IN,46219
5220 ENGLISH AVE,INDIANAPOLIS,IN,46219
7425 WASHINGTON ST,INDIANAPOLIS,IN,46219
7047 10TH ST,INDIANAPOLIS,IN,46219
755 SHADELAND AVE,INDIANAPOLIS,IN,46219
851 SHADELAND AVE,INDIANAPOLIS,IN,46219
7720 OLD TRAILS RD,INDIANAPOLIS,IN,46219
1425 SADLIER CIR WDR,INDIANAPOLIS,IN,46239
1754 ARLINGTON AVE,INDIANAPOLIS,IN,46218
2598 ARLINGTON AVE,INDIANAPOLIS,IN,46218
2002 ARLINGTON AVE,INDIANAPOLIS,IN,46218
5990 RAYMOND ST,INDIANAPOLIS,IN,46203
8020 NUCKOLS LN,INDIANAPOLIS,IN,46237
4033 WEAVER AVE,INDIANAPOLIS,IN,46227
5055 DEARBORN ST,INDIANAPOLIS,IN,46227
5520 MADISON AVE,INDIANAPOLIS,IN,46227
3333 THOMPSON RD,INDIANAPOLIS,IN,46227
5621 MADISON AVE,INDIANAPOLIS,IN,46227
5048 MADISON AVE,INDIANAPOLIS,IN,46227
4904 MADISON AVE,INDIANAPOLIS,IN,46227
610 SOUTHPORT RD,INDIANAPOLIS,IN,46227
5124 STOP 11 RD,INDIANAPOLIS,IN,46237
7625 MC FARLAND RD,INDIANAPOLIS,IN,46227
7631 MERIDIAN ST,INDIANAPOLIS,IN,46217
5809 BLUFF RD,INDIANAPOLIS,IN,46217
5204 HARDING ST,INDIANAPOLIS,IN,46217
507 TROY AVE,INDIANAPOLIS,IN,46203
1024 SUMNER AVE,INDIANAPOLIS,IN,46227
3013 STANLEY AVE,INDIANAPOLIS,IN,46227
1305 TROY AVE,INDIANAPOLIS,IN,46225
1305 TROY AVE,INDIANAPOLIS,IN,46225
1305 TROY AVE,INDIANAPOLIS,IN,46225
551 STOVER AVE,INDIANAPOLIS,IN,46227
3035 MERIDIAN ST,INDIANAPOLIS,IN,46217
4444 HARDING ST,INDIANAPOLIS,IN,46217
531 TROY AVE,INDIANAPOLIS,IN,46203
950 TROY AVE,INDIANAPOLIS,IN,46203
1034 TROY AVE,INDIANAPOLIS,IN,46203
1111 NELSON AVE,INDIANAPOLIS,IN,46203
1124 TROY AVE,INDIANAPOLIS,IN,46203
255 RAYMOND ST,INDIANAPOLIS,IN,46225
2236 SHELBY ST,INDIANAPOLIS,IN,46203
2170 POST RD,INDIANAPOLIS,IN,46219
8640 WASHINGTON ST,INDIANAPOLIS,IN,46219
317 30TH ST,INDIANAPOLIS,IN,46208
2926 CAPITOL AVE,INDIANAPOLIS,IN,46208
59 STATE AVE,INDIANAPOLIS,IN,46201
5827 71ST ST,INDIANAPOLIS,IN,46220
7168 GRAHAM RD,INDIANAPOLIS,IN,46250
7000 GRAHAM RD,INDIANAPOLIS,IN,46220
4729 82ND ST,INDIANAPOLIS,IN,46250
2900 SHADELAND AVE,INDIANAPOLIS,IN,46219
6214 CARROLLTON AVE,INDIANAPOLIS,IN,46220
6116 COLLEGE AVE,INDIANAPOLIS,IN,46220
6367 GUILFORD AVE,INDIANAPOLIS,IN,46220
6364 WESTFIELD BLVD,INDIANAPOLIS,IN,46220
6331 FERGUSON ST,INDIANAPOLIS,IN,46220
6102 COLLEGE AVE,INDIANAPOLIS,IN,46220
6150 KEYSTONE AVE,INDIANAPOLIS,IN,46220
6230 COLLEGE AVE,INDIANAPOLIS,IN,46220
4202 BOULEVARD PL,INDIANAPOLIS,IN,46208
5500 MERIDIAN ST,INDIANAPOLIS,IN,46208
3822 ILLINOIS ST,INDIANAPOLIS,IN,46208
3801 ILLINOIS ST,INDIANAPOLIS,IN,46208
5838 82ND ST,INDIANAPOLIS,IN,46250
6415 CASTLEWAY WDR,INDIANAPOLIS,IN,46250
8004 CASTLEWAY DR,INDIANAPOLIS,IN,46250
8448 CENTER RUN RD,INDIANAPOLIS,IN,46250
5120 82ND ST,INDIANAPOLIS,IN,46250
7014 WASHINGTON ST,INDIANAPOLIS,IN,46241
6324 WASHINGTON ST,INDIANAPOLIS,IN,46241
6340 ROCKVILLE RD,INDIANAPOLIS,IN,46214
9001 10TH ST,INDIANAPOLIS,IN,46234
1501 86TH ST,INDIANAPOLIS,IN,46240
2126 71ST ST,INDIANAPOLIS,IN,46220
6833 EVANSTON AVE,INDIANAPOLIS,IN,46220
8701 KEYSTONE CROSSING,INDIANAPOLIS,IN,46240
9104 CRAWFORDSVILLE RD,INDIANAPOLIS,IN,46234
9204 CRAWFORDSVILLE RD,INDIANAPOLIS,IN,46234
8777 PURDUE RD,INDIANAPOLIS,IN,46268
3645 VINCENNES RD,INDIANAPOLIS,IN,46268
8777 PURDUE RD,INDIANAPOLIS,IN,46268
3333 FOUNDERS RD,INDIANAPOLIS,IN,46268
9002 VINCENNES CIR,INDIANAPOLIS,IN,46268
8765 GUION RD,INDIANAPOLIS,IN,46268
8650 COMMERCE PARK PL,INDIANAPOLIS,IN,46268
8751 WESLEYAN RD,INDIANAPOLIS,IN,46268
2433 LAKE CIRCLE DR,INDIANAPOLIS,IN,46268
8770 PURDUE RD,INDIANAPOLIS,IN,46268
3601 96TH ST,INDIANAPOLIS,IN,46268
9150 MICHIGAN RD,INDIANAPOLIS,IN,46268
4709 96TH ST,INDIANAPOLIS,IN,46268
3845 96TH ST,INDIANAPOLIS,IN,46268
9310 WALDEMAR RD,INDIANAPOLIS,IN,46268
3719 96TH ST,INDIANAPOLIS,IN,46268
9301 MICHIGAN RD,INDIANAPOLIS,IN,46268
4505 96TH ST,INDIANAPOLIS,IN,46268
8812 AMERICANA BLVD,INDIANAPOLIS,IN,46268
8731 AMERICANA BLVD,INDIANAPOLIS,IN,46268
8728 ROBBINS RD,INDIANAPOLIS,IN,46268
8741 AMERICANA BLVD,INDIANAPOLIS,IN,46268
8860 ZIONSVILLE RD,INDIANAPOLIS,IN,46268
5049 ROBISON RD,INDIANAPOLIS,IN,46268
4929 ROBISON RD,INDIANAPOLIS,IN,46268
5000 86TH ST,INDIANAPOLIS,IN,46268
8602 LAFAYETTE RD,INDIANAPOLIS,IN,46278
6161 96TH ST,INDIANAPOLIS,IN,46278
6166 38TH ST,INDIANAPOLIS,IN,46226
4425 ARLINGTON AVE,INDIANAPOLIS,IN,46226
6175 46TH ST,INDIANAPOLIS,IN,46226
5326 LADYWOOD KNOLL LN,INDIANAPOLIS,IN,46226
6302 RUCKER RD,INDIANAPOLIS,IN,46220
6935 LAKEKNOLL DR,INDIANAPOLIS,IN,46220
5959 71ST ST,INDIANAPOLIS,IN,46220
6314 RUCKER RD,INDIANAPOLIS,IN,46220
35 PENNSYLVANIA ST,INDIANAPOLIS,IN,46204
426 NEW YORK ST,INDIANAPOLIS,IN,46202
235 MERIDIAN ST,INDIANAPOLIS,IN,46225
14 MARYLAND ST,INDIANAPOLIS,IN,46204
608 MARKET ST,INDIANAPOLIS,IN,46202
500 OHIO ST,INDIANAPOLIS,IN,46204
430 ALABAMA ST,INDIANAPOLIS,IN,46225
230 MCCARTY ST,INDIANAPOLIS,IN,46225
239 MERIDIAN ST,INDIANAPOLIS,IN,46225
515 MCCARTY ST,INDIANAPOLIS,IN,46203
620 10TH ST,INDIANAPOLIS,IN,46202
901 SHELBY ST,INDIANAPOLIS,IN,46203
1537 PROSPECT ST,INDIANAPOLIS,IN,46203
1315 PLEASANT ST,INDIANAPOLIS,IN,46203
3221 ORANGE ST,INDIANAPOLIS,IN,46203
1134 TEMPERANCE AVE,INDIANAPOLIS,IN,46203
1901 LINDEN ST,INDIANAPOLIS,IN,46203
6943 38TH ST,INDIANAPOLIS,IN,46254
6901 38TH ST,INDIANAPOLIS,IN,46254
3851 SHORE DR,INDIANAPOLIS,IN,46254
3820 13TH ST,INDIANAPOLIS,IN,46201
1950 RURAL ST,INDIANAPOLIS,IN,46218
4445 10TH ST,INDIANAPOLIS,IN,46201
2708 MICHIGAN ST,INDIANAPOLIS,IN,46201
1409 ROOSEVELT AVE,INDIANAPOLIS,IN,46201
933 MARKET ST,INDIANAPOLIS,IN,46202
2136 GALE ST,INDIANAPOLIS,IN,46218
4102 WASHINGTON ST,INDIANAPOLIS,IN,46201
2050 MICHIGAN ST,INDIANAPOLIS,IN,46201
2416 NEW YORK ST,INDIANAPOLIS,IN,46201
16 MORRIS ST,INDIANAPOLIS,IN,46225
2033 MERIDIAN ST,INDIANAPOLIS,IN,46225
2506 STATION ST,INDIANAPOLIS,IN,46218
3125 DR A J BROWN AVE,INDIANAPOLIS,IN,46205
3340 32ND ST,INDIANAPOLIS,IN,46218
3145 DR A J BROWN AVE,INDIANAPOLIS,IN,46205
2022 FERNWAY ST,INDIANAPOLIS,IN,46218
2422 SHERMAN DR,INDIANAPOLIS,IN,46218
1611 COLUMBIA AVE,INDIANAPOLIS,IN,46202
2745 SHERMAN DR,INDIANAPOLIS,IN,46218
1801 30TH ST,INDIANAPOLIS,IN,46218
3929 MILLERSVILLE RD,INDIANAPOLIS,IN,46205
4201 MILLERSVILLE RD,INDIANAPOLIS,IN,46205
4160 MILLERSVILLE RD,INDIANAPOLIS,IN,46205
2425 38TH ST,INDIANAPOLIS,IN,46218
4130 KEYSTONE AVE,INDIANAPOLIS,IN,46205
4189 KEYSTONE AVE,INDIANAPOLIS,IN,46205
721 27TH ST,INDIANAPOLIS,IN,46205
1515 PENNSYLVANIA ST,INDIANAPOLIS,IN,46202
2179 PENNSYLVANIA ST,INDIANAPOLIS,IN,46202
1516 DELAWARE ST,INDIANAPOLIS,IN,46202
1341 CAPITOL AVE,INDIANAPOLIS,IN,46202
5015 56TH ST,INDIANAPOLIS,IN,46226
4740 KINGSWAY DR,INDIANAPOLIS,IN,46205
561 26TH ST,INDIANAPOLIS,IN,46208
1818 MONTCALM ST,INDIANAPOLIS,IN,46202
2515 DR M L KING JR ST,INDIANAPOLIS,IN,46208
1240 ROACHE ST,INDIANAPOLIS,IN,46208
1245 ROACHE ST,INDIANAPOLIS,IN,46208
1061 27TH ST,INDIANAPOLIS,IN,46208
525 25TH ST,INDIANAPOLIS,IN,46208
839 30TH ST,INDIANAPOLIS,IN,46208
1010 BURDSAL PKWY,INDIANAPOLIS,IN,46202
5206 38TH ST,INDIANAPOLIS,IN,46254
3899 GEORGETOWN RD,INDIANAPOLIS,IN,46254
5056 38TH ST,INDIANAPOLIS,IN,46254
4902 WASHINGTON ST,INDIANAPOLIS,IN,46241
877 COLLIER ST,INDIANAPOLIS,IN,46241
4409 MORRIS ST,INDIANAPOLIS,IN,46241
5220 SOUTHERN AVE,INDIANAPOLIS,IN,46241
2321 EXECUTIVE DR,INDIANAPOLIS,IN,46241
5347 RAYMOND ST,INDIANAPOLIS,IN,46241
2031 BELMONT AVE,INDIANAPOLIS,IN,46221
1417 BELMONT AVE,INDIANAPOLIS,IN,46221
1940 OLIVER AVE,INDIANAPOLIS,IN,46221
3055 16TH ST,INDIANAPOLIS,IN,46222
2135 WASHINGTON ST,INDIANAPOLIS,IN,46222
3512 ROCKVILLE RD,INDIANAPOLIS,IN,46222
4027 10TH ST,INDIANAPOLIS,IN,46222
2134 WASHINGTON ST,INDIANAPOLIS,IN,46222
2441 LAFAYETTE RD,INDIANAPOLIS,IN,46222
1622 BELLEVIEW PL,INDIANAPOLIS,IN,46222
3032 16TH ST,INDIANAPOLIS,IN,46222
3346 LOWRY RD,INDIANAPOLIS,IN,46222
2412 17TH ST,INDIANAPOLIS,IN,46222
4950 34TH ST,INDIANAPOLIS,IN,46224
3642 16TH ST,INDIANAPOLIS,IN,46222
3440 16TH ST,INDIANAPOLIS,IN,46222
4809 38TH ST,INDIANAPOLIS,IN,46254
5502 34TH ST,INDIANAPOLIS,IN,46224
5613 38TH ST,INDIANAPOLIS,IN,46254
5516 38TH ST,INDIANAPOLIS,IN,46254
6320 38TH ST,INDIANAPOLIS,IN,46254
4559 CENTRAL AVE,INDIANAPOLIS,IN,46205
5235 WINTHROP AVE,INDIANAPOLIS,IN,46220
4901 PENNSYLVANIA ST,INDIANAPOLIS,IN,46205
9002 MERIDIAN ST,INDIANAPOLIS,IN,46260
3745 POST RD,INDIANAPOLIS,IN,46226
10055 25TH ST,INDIANAPOLIS,IN,46229
75 KENYON ST,INDIANAPOLIS,IN,46219
30 AUDUBON RD,INDIANAPOLIS,IN,46219
75 KENYON ST,INDIANAPOLIS,IN,46219
5502 21ST ST,INDIANAPOLIS,IN,46218
2301 HAWTHORNE LN,INDIANAPOLIS,IN,46218
2305 KITLEY AVE,INDIANAPOLIS,IN,46219
234 FRANKLIN RD,INDIANAPOLIS,IN,46219
1800 TROY AVE,INDIANAPOLIS,IN,46203
6838 GRAY RD,INDIANAPOLIS,IN,46237
4120 SOUTHPORT RD,INDIANAPOLIS,IN,46237
8010 US 31 INDIANAPOLIS,IN,46227
8686 MADISON AVE,INDIANAPOLIS,IN,46227
7624 MERIDIAN ST,INDIANAPOLIS,IN,46217
1739 EDGEWOOD AVE,INDIANAPOLIS,IN,46217
1349 SUNDAY DR,INDIANAPOLIS,IN,46217
1780 EPLER AVE,INDIANAPOLIS,IN,46217
2903 MOORESVILLE RD,INDIANAPOLIS,IN,46221
511 WERGES AVE,INDIANAPOLIS,IN,46227
3331 ARBOR ST,INDIANAPOLIS,IN,46217
3331 ARBOR ST,INDIANAPOLIS,IN,46217
4102 MADISON AVE,INDIANAPOLIS,IN,46227
4250 BLUFF RD,INDIANAPOLIS,IN,46217
606 TROY AVE,INDIANAPOLIS,IN,46225
1040 POST RD,INDIANAPOLIS,IN,46219
1924 WELLESLEY BLVD,INDIANAPOLIS,IN,46219
8540 16TH ST,INDIANAPOLIS,IN,46219
37 38TH ST,INDIANAPOLIS,IN,46208
351 30TH ST,INDIANAPOLIS,IN,46208
2750 62ND ST,INDIANAPOLIS,IN,46220
2012 ENGLISH AVE,INDIANAPOLIS,IN,46201
3302 PROSPECT ST,INDIANAPOLIS,IN,46203
7255 WASHINGTON ST,INDIANAPOLIS,IN,46241
3850 KERCHEVAL DR,INDIANAPOLIS,IN,46226
6916 30TH ST,INDIANAPOLIS,IN,46219
6433 30TH ST,INDIANAPOLIS,IN,46219
3199 SHADELAND AVE,INDIANAPOLIS,IN,46226
6555 30TH ST,INDIANAPOLIS,IN,46219
6229 CARROLLTON AVE,INDIANAPOLIS,IN,46220
2110 BROAD RIPPLE AVE,INDIANAPOLIS,IN,46220
6302 COLLEGE AVE,INDIANAPOLIS,IN,46220
6138 HILLSIDE AVE,INDIANAPOLIS,IN,46220
6501 COLLEGE AVE,INDIANAPOLIS,IN,46220
927 BROAD RIPPLE AVE,INDIANAPOLIS,IN,46220
6220 BROADWAY ST,INDIANAPOLIS,IN,46220
920 WESTFIELD BLVD,INDIANAPOLIS,IN,46220
1101 86TH ST,INDIANAPOLIS,IN,46240
8350 CAMBY RD,INDIANAPOLIS,IN,46113
9330 CORPORATION DR,INDIANAPOLIS,IN,46256
6750 82ND ST,INDIANAPOLIS,IN,46250
8822 WASHINGTON ST,INDIANAPOLIS,IN,46231
7008 WASHINGTON ST,INDIANAPOLIS,IN,46241
711 HIGH SCHOOL RD,INDIANAPOLIS,IN,46241
7522 WASHINGTON ST,INDIANAPOLIS,IN,46231
7200 SARTO DR,INDIANAPOLIS,IN,46240
3502 86TH ST,INDIANAPOLIS,IN,46240
8140 UNION CHAPEL RD,INDIANAPOLIS,IN,46240
8630 KEYSTONE CROSSING,INDIANAPOLIS,IN,46240
8787 KEYSTONE CROSSING,INDIANAPOLIS,IN,46240
1155 54TH ST,INDIANAPOLIS,IN,46220
1111 54TH ST,INDIANAPOLIS,IN,46220
9054 CRAWFORDSVILLE RD,INDIANAPOLIS,IN,46234
8311 CRAWFORDSVILLE RD,INDIANAPOLIS,IN,46234
9129 CRAWFORDSVILLE RD,INDIANAPOLIS,IN,46234
9046 CRAWFORDSVILLE RD,INDIANAPOLIS,IN,46234
4803 96TH ST,INDIANAPOLIS,IN,46268
6225 KNOLLTON RD,INDIANAPOLIS,IN,46260
6302 RUCKER RD,INDIANAPOLIS,IN,46220
123 NEW JERSEY ST,INDIANAPOLIS,IN,46204
1550 INDIANA AVE,INDIANAPOLIS,IN,46202
320 SENATE AVE,INDIANAPOLIS,IN,46204
333 ALABAMA ST,INDIANAPOLIS,IN,46204
646 VIRGINIA AVE,INDIANAPOLIS,IN,46203
412 MCCARTY ST,INDIANAPOLIS,IN,46225
118 NORTH ST,INDIANAPOLIS,IN,46204
646 MASSACHUSETTS AVE,INDIANAPOLIS,IN,46204
1042 VIRGINIA AVE,INDIANAPOLIS,IN,46203
1707 PROSPECT ST,INDIANAPOLIS,IN,46203
222 ARSENAL AVE,INDIANAPOLIS,IN,46201
1101 ENGLISH AVE,INDIANAPOLIS,IN,46203
2348 WOODLAWN AVE,INDIANAPOLIS,IN,46203
1401 PLEASANT RUN PKWY SDR,INDIANAPOLIS,IN,46203
3737 PROSPECT ST,INDIANAPOLIS,IN,46203
1635 VILLA AVE,INDIANAPOLIS,IN,46203
2005 KEYSTONE AVE,INDIANAPOLIS,IN,46203
3850 SHORE DR,INDIANAPOLIS,IN,46254
4025 SHORE DR,INDIANAPOLIS,IN,46254
6910 38TH ST,INDIANAPOLIS,IN,46254
6840 EAGLE HIGHLANDS WAY,INDIANAPOLIS,IN,46254
3823 10TH ST,INDIANAPOLIS,IN,46201
2402 WASHINGTON ST,INDIANAPOLIS,IN,46201
3402 10TH ST,INDIANAPOLIS,IN,46201
1351 ROOSEVELT AVE,INDIANAPOLIS,IN,46202
934 WASHINGTON ST,INDIANAPOLIS,IN,46202
3826 WASHINGTON ST,INDIANAPOLIS,IN,46201
1340 ROOSEVELT AVE,INDIANAPOLIS,IN,46202
4111 16TH ST,INDIANAPOLIS,IN,46201
3822 13TH ST,INDIANAPOLIS,IN,46201
3616 10TH ST,INDIANAPOLIS,IN,46201
2506 WASHINGTON ST,INDIANAPOLIS,IN,46201
1602 EAST ST,INDIANAPOLIS,IN,46225
326 ORANGE ST,INDIANAPOLIS,IN,46225
3801 38TH ST,INDIANAPOLIS,IN,46218
3624 ROOSEVELT AVE,INDIANAPOLIS,IN,46218
3247 FOREST MANOR AVE,INDIANAPOLIS,IN,46218
1503 COLUMBIA AVE,INDIANAPOLIS,IN,46202
1558 ARSENAL AVE,INDIANAPOLIS,IN,46201
1422 ILLINOIS ST,INDIANAPOLIS,IN,46202
1950 MERIDIAN ST,INDIANAPOLIS,IN,46202
2233 PARK AVE,INDIANAPOLIS,IN,46205
608 22ND ST,INDIANAPOLIS,IN,46202
1513 ALABAMA ST,INDIANAPOLIS,IN,46202
2509 54TH ST,INDIANAPOLIS,IN,46220
1801 49TH ST,INDIANAPOLIS,IN,46205
2302 44TH ST,INDIANAPOLIS,IN,46205
5120 BROUSE AVE,INDIANAPOLIS,IN,46205
2957 CENTRAL AVE,INDIANAPOLIS,IN,46205
3637 MERIDIAN ST,INDIANAPOLIS,IN,46208
1901 HARDING ST,INDIANAPOLIS,IN,46202
555 27TH ST,INDIANAPOLIS,IN,46208
2357 DR M L KING JR ST,INDIANAPOLIS,IN,46208
1258 BURDSAL PKWY,INDIANAPOLIS,IN,46208
1252 ROACHE ST,INDIANAPOLIS,IN,46208
904 27TH ST,INDIANAPOLIS,IN,46208
1234 ROACHE ST,INDIANAPOLIS,IN,46208
3820 GEORGETOWN RD,INDIANAPOLIS,IN,46254
5060 38TH ST,INDIANAPOLIS,IN,46254
5435 PIKE PLAZA RD,INDIANAPOLIS,IN,46254
4624 38TH ST,INDIANAPOLIS,IN,46254
3820 LAFAYETTE RD,INDIANAPOLIS,IN,46254
3898 LAFAYETTE RD,INDIANAPOLIS,IN,46254
3919 LAFAYETTE RD,INDIANAPOLIS,IN,46254
4080 LAFAYETTE RD,INDIANAPOLIS,IN,46254
3919 LAFAYETTE RD,INDIANAPOLIS,IN,46254
5200 PIKE PLAZA RD,INDIANAPOLIS,IN,46254
5151 PIKE PLAZA RD,INDIANAPOLIS,IN,46254
4444 WASHINGTON ST,INDIANAPOLIS,IN,46241
4150 WASHINGTON ST,INDIANAPOLIS,IN,46241
45 BEACHWAY DR,INDIANAPOLIS,IN,46224
14 BEACHWAY DR,INDIANAPOLIS,IN,46224
5201 ROCKVILLE RD,INDIANAPOLIS,IN,46224
4110 ROCKVILLE RD,INDIANAPOLIS,IN,46222
1205 LYNHURST DR,INDIANAPOLIS,IN,46241
5035 WASHINGTON ST,INDIANAPOLIS,IN,46241
4903 WASHINGTON ST,INDIANAPOLIS,IN,46241
2621 LYNHURST DR,INDIANAPOLIS,IN,46241
3650 MINNESOTA ST,INDIANAPOLIS,IN,46241
1555 HARDING ST,INDIANAPOLIS,IN,46221
2210 MORRIS ST,INDIANAPOLIS,IN,46221
1501 BELMONT AVE,INDIANAPOLIS,IN,46221
2117 10TH ST,INDIANAPOLIS,IN,46222
2911 WASHINGTON ST,INDIANAPOLIS,IN,46222
927 TRAUB AVE,INDIANAPOLIS,IN,46222
4545 38TH ST,INDIANAPOLIS,IN,46254
4950 34TH ST,INDIANAPOLIS,IN,46224
3048 LAFAYETTE RD,INDIANAPOLIS,IN,46222
6355 WESTHAVEN DR,INDIANAPOLIS,IN,46254
3920 HIGH SCHOOL RD,INDIANAPOLIS,IN,46254
6340 GATEWAY DR,INDIANAPOLIS,IN,46254
3950 HIGH SCHOOL RD,INDIANAPOLIS,IN,46254
3920 HIGH SCHOOL RD,INDIANAPOLIS,IN,46254
4550 COLLEGE AVE,INDIANAPOLIS,IN,46205
111 49TH ST,INDIANAPOLIS,IN,46205
9011 MERIDIAN ST,INDIANAPOLIS,IN,46260
9901 FALL CREEK RD,INDIANAPOLIS,IN,46256
411 RITTER AVE,INDIANAPOLIS,IN,46219
525 WEBSTER AVE,INDIANAPOLIS,IN,46219
14 BUTLER AVE,INDIANAPOLIS,IN,46219
501 SHORTRIDGE RD,INDIANAPOLIS,IN,46219
7610 OLD TRAILS RD,INDIANAPOLIS,IN,46219
7208 WASHINGTON ST,INDIANAPOLIS,IN,46219
1399 SHADELAND AVE,INDIANAPOLIS,IN,46219
5829 25TH ST,INDIANAPOLIS,IN,46218
1550 ARLINGTON AVE,INDIANAPOLIS,IN,46219
2518 ARLINGTON AVE,INDIANAPOLIS,IN,46218
1604 ARLINGTON AVE,INDIANAPOLIS,IN,46218
8150 BROOKVILLE RD,INDIANAPOLIS,IN,46239
9808 RAWLES AVE,INDIANAPOLIS,IN,46229
6230 SOUTHEASTERN AVE,INDIANAPOLIS,IN,46203
11111 EXCHANGE ST,INDIANAPOLIS,IN,46259
1953 TROY AVE,INDIANAPOLIS,IN,46203
2297 TROY AVE,INDIANAPOLIS,IN,46203
3525 HANNA AVE,INDIANAPOLIS,IN,46237
3029 SHELBY ST,INDIANAPOLIS,IN,46227
5701 MC FARLAND RD,INDIANAPOLIS,IN,46227
5433 MADISON AVE,INDIANAPOLIS,IN,46227
6900 GRAY RD,INDIANAPOLIS,IN,46237
5195 COMMERCE CIR,INDIANAPOLIS,IN,46237
5240 COMMERCE CIR,INDIANAPOLIS,IN,46237
8335 SHELBY ST,INDIANAPOLIS,IN,46227
5260 COMMERCE CIR,INDIANAPOLIS,IN,46237
1625 SOUTHPORT RD,INDIANAPOLIS,IN,46227
7610 MERIDIAN ST,INDIANAPOLIS,IN,46217
8221 MORGANTOWN RD,INDIANAPOLIS,IN,46217
5809 BLUFF RD,INDIANAPOLIS,IN,46217
5240 CONCORD ST,INDIANAPOLIS,IN,46217
2955 KENTUCKY AVE,INDIANAPOLIS,IN,46221
2547 KENTUCKY AVE,INDIANAPOLIS,IN,46221
3104 MADISON AVE,INDIANAPOLIS,IN,46227
3448 SHELBY ST,INDIANAPOLIS,IN,46227
2722 HOLT RD,INDIANAPOLIS,IN,46241
2962 CARSON AVE,INDIANAPOLIS,IN,46203
610 TROY AVE,INDIANAPOLIS,IN,46225
59 FRANKLIN RD,INDIANAPOLIS,IN,46219
7930 WASHINGTON ST,INDIANAPOLIS,IN,46219
3425 BOULEVARD PL,INDIANAPOLIS,IN,46208
2802 62ND ST,INDIANAPOLIS,IN,46220
4826 FLETCHER AVE,INDIANAPOLIS,IN,46203
1034 KEALING AVE,INDIANAPOLIS,IN,46203
2419 WASHINGTON ST,INDIANAPOLIS,IN,46201
2017 SOUTHEASTERN AVE,INDIANAPOLIS,IN,46201
1449 HIGH SCHOOL RD,INDIANAPOLIS,IN,46241
5030 62ND ST,INDIANAPOLIS,IN,46220
6437 RUCKER RD,INDIANAPOLIS,IN,46220
6150 75TH ST,INDIANAPOLIS,IN,46250
3737 SHADELAND AVE,INDIANAPOLIS,IN,46226
3621 SHADELAND AVE,INDIANAPOLIS,IN,46226
2650 SHADELAND AVE,INDIANAPOLIS,IN,46219
2800 ENTERPRISE ST,INDIANAPOLIS,IN,46219
6685 38TH ST,INDIANAPOLIS,IN,46226
3810 SHADELAND AVE,INDIANAPOLIS,IN,46226
6975 PENDLETON PIKE,INDIANAPOLIS,IN,46226
3701 SHADELAND AVE,INDIANAPOLIS,IN,46226
3116 RITTER AVE,INDIANAPOLIS,IN,46218
7155 PENDLETON PIKE,INDIANAPOLIS,IN,46226
6280 COLLEGE AVE,INDIANAPOLIS,IN,46220
4144 BOULEVARD PL,INDIANAPOLIS,IN,46208
777 86TH ST,INDIANAPOLIS,IN,46240
6361 KENTUCKY AVE,INDIANAPOLIS,IN,46221
8275 ALLISON POINTE TRAIL,INDIANAPOLIS,IN,46250
6351 82ND ST,INDIANAPOLIS,IN,46250
6410 82ND ST,INDIANAPOLIS,IN,46250
5825 91ST ST,INDIANAPOLIS,IN,46250
5739 86TH ST,INDIANAPOLIS,IN,46250
9101 10TH ST,INDIANAPOLIS,IN,46234
7050 WASHINGTON ST,INDIANAPOLIS,IN,46241
1115 BRIDGEPORT RD,INDIANAPOLIS,IN,46231
7515 ROCKVILLE RD,INDIANAPOLIS,IN,46214
320 TRANSFER DR,INDIANAPOLIS,IN,46214
8010 WASHINGTON ST,INDIANAPOLIS,IN,46231
7251 RALSTON AVE,INDIANAPOLIS,IN,46240
9405 DELEGATES ROW,INDIANAPOLIS,IN,46240
1134 54TH ST,INDIANAPOLIS,IN,46220
9250 CRAWFORDSVILLE RD,INDIANAPOLIS,IN,46234
5959 GRANDVIEW DR,INDIANAPOLIS,IN,46228
5340 38TH ST,INDIANAPOLIS,IN,46218
5327 LADYWOOD KNOLL PL,INDIANAPOLIS,IN,46226
952 FORT WAYNE AVE,INDIANAPOLIS,IN,46202
621 VIRGINIA AVE,INDIANAPOLIS,IN,46203
417 ABBOTT ST,INDIANAPOLIS,IN,46225
953 INDIANA AVE,INDIANAPOLIS,IN,46202
1525 RIVERSIDE DR E,INDIANAPOLIS,IN,46202
921 WEST ST,INDIANAPOLIS,IN,46225
1021 PENNSYLVANIA ST,INDIANAPOLIS,IN,46204
825 ST CLAIR ST,INDIANAPOLIS,IN,46202
531 OSCAR ROBERTSON BLVD,INDIANAPOLIS,IN,46202
2213 PROSPECT ST,INDIANAPOLIS,IN,46203
1131 BATES ST,INDIANAPOLIS,IN,46202
1902 WOODLAWN AVE,INDIANAPOLIS,IN,46203
1015 VIRGINIA AVE,INDIANAPOLIS,IN,46203
950 HOSBROOK ST,INDIANAPOLIS,IN,46203
1100 MARYLAND ST,INDIANAPOLIS,IN,46202
251 SUMMIT ST,INDIANAPOLIS,IN,46201
1108 FLETCHER AVE,INDIANAPOLIS,IN,46203
1540 LEGRANDE AVE,INDIANAPOLIS,IN,46203
3619 TERRACE AVE,INDIANAPOLIS,IN,46203
3743 PROSPECT ST,INDIANAPOLIS,IN,46203
3017 VALLEY FARMS RD,INDIANAPOLIS,IN,46214
1433 SHERMAN DR,INDIANAPOLIS,IN,46201
4420 21ST ST,INDIANAPOLIS,IN,46218
1499 SHERMAN DR,INDIANAPOLIS,IN,46201
1716 WASHINGTON ST,INDIANAPOLIS,IN,46201
4427 NEW YORK ST,INDIANAPOLIS,IN,46201
958 WASHINGTON ST,INDIANAPOLIS,IN,46202
3934 10TH ST,INDIANAPOLIS,IN,46201
5068 10TH ST,INDIANAPOLIS,IN,46201
1417 NEWMAN ST,INDIANAPOLIS,IN,46201
1641 MICHIGAN ST,INDIANAPOLIS,IN,46201
522 RAYMOND ST,INDIANAPOLIS,IN,46203
1339 MADISON AVE,INDIANAPOLIS,IN,46225
2176 SHELBY ST,INDIANAPOLIS,IN,46203
901 BEECHER ST,INDIANAPOLIS,IN,46203
1601 EAST ST,INDIANAPOLIS,IN,46225
4900 38TH ST,INDIANAPOLIS,IN,46218
3904 EMERSON AVE,INDIANAPOLIS,IN,46226
2355 STATION ST,INDIANAPOLIS,IN,46218
1733 DR A J BROWN AVE,INDIANAPOLIS,IN,46202
3201 DR A J BROWN AVE,INDIANAPOLIS,IN,46205
2517 EASTERN AVE,INDIANAPOLIS,IN,46218
2815 DEARBORN ST,INDIANAPOLIS,IN,46218
1951 BLOYD AVE,INDIANAPOLIS,IN,46218
1322 25TH ST,INDIANAPOLIS,IN,46205
2251 SHELDON ST,INDIANAPOLIS,IN,46218
3714 ROOSEVELT AVE,INDIANAPOLIS,IN,46218
2028 WINTER AVE,INDIANAPOLIS,IN,46218
4043 KEYSTONE AVE,INDIANAPOLIS,IN,46205
2402 38TH ST,INDIANAPOLIS,IN,46218
1529 ALABAMA ST,INDIANAPOLIS,IN,46202
2209 MERIDIAN ST,INDIANAPOLIS,IN,46208
1927 CAPITOL AVE,INDIANAPOLIS,IN,46202
1621 BROADWAY ST,INDIANAPOLIS,IN,46202
2761 55TH PL,INDIANAPOLIS,IN,46220
5601 KEYSTONE AVE,INDIANAPOLIS,IN,46220
1938 46TH ST,INDIANAPOLIS,IN,46205
3359 RUCKLE ST,INDIANAPOLIS,IN,46205
3676 WASHINGTON BLVD,INDIANAPOLIS,IN,46205
3447 WASHINGTON BLVD,INDIANAPOLIS,IN,46205
3363 CENTRAL AVE,INDIANAPOLIS,IN,46205
517 30TH ST,INDIANAPOLIS,IN,46208
4930 LAFAYETTE RD,INDIANAPOLIS,IN,46254
4407 LAFAYETTE RD,INDIANAPOLIS,IN,46254
4640 LAFAYETTE RD,INDIANAPOLIS,IN,46254
4630 LAFAYETTE RD,INDIANAPOLIS,IN,46254
4619 LAFAYETTE RD,INDIANAPOLIS,IN,46254
1202 LYNHURST DR,INDIANAPOLIS,IN,46241
648 TAFT AVE,INDIANAPOLIS,IN,46241
3801 MORRIS ST,INDIANAPOLIS,IN,46241
3847 WASHINGTON ST,INDIANAPOLIS,IN,46241
1704 LYNHURST DR,INDIANAPOLIS,IN,46241
2001 TIBBS AVE,INDIANAPOLIS,IN,46241
817 TIBBS AVE,INDIANAPOLIS,IN,46241
1302 BEDFORD ST,INDIANAPOLIS,IN,46221
864 HOLMES AVE,INDIANAPOLIS,IN,46221
2313 WASHINGTON ST,INDIANAPOLIS,IN,46222
2330 WASHINGTON ST,INDIANAPOLIS,IN,46222
747 KETCHAM ST,INDIANAPOLIS,IN,46222
2447 16TH ST,INDIANAPOLIS,IN,46222
926 TRAUB AVE,INDIANAPOLIS,IN,46222
726 HOLMES AVE,INDIANAPOLIS,IN,46222
2611 MICHIGAN ST,INDIANAPOLIS,IN,46222
2302 WASHINGTON ST,INDIANAPOLIS,IN,46222
3434 GARDEN AVE,INDIANAPOLIS,IN,46222
3435 16TH ST,INDIANAPOLIS,IN,46222
3025 16TH ST,INDIANAPOLIS,IN,46222
2724 WASHINGTON ST,INDIANAPOLIS,IN,46222
2401 WASHINGTON ST,INDIANAPOLIS,IN,46222
2975 CENTENNIAL ST,INDIANAPOLIS,IN,46222
3731 GUION RD,INDIANAPOLIS,IN,46222
3400 LAFAYETTE RD,INDIANAPOLIS,IN,46222
3540 COMMERCIAL DR,INDIANAPOLIS,IN,46222
3136 16TH ST,INDIANAPOLIS,IN,46222
2500 LAFAYETTE RD,INDIANAPOLIS,IN,46222
3337 GEORGETOWN RD,INDIANAPOLIS,IN,46224
6141 38TH ST,INDIANAPOLIS,IN,46254
3820 COLLEGE AVE,INDIANAPOLIS,IN,46205
5167 COLLEGE AVE,INDIANAPOLIS,IN,46205
9202 MERIDIAN ST,INDIANAPOLIS,IN,46260
8560 30TH ST,INDIANAPOLIS,IN,46219
9522 30TH ST,INDIANAPOLIS,IN,46229
5103 WASHINGTON ST,INDIANAPOLIS,IN,46219
412 KITLEY AVE,INDIANAPOLIS,IN,46219
5402 BROOKVILLE RD,INDIANAPOLIS,IN,46219
820 POST RD,INDIANAPOLIS,IN,46239
7822 BROOKVILLE RD,INDIANAPOLIS,IN,46239
7375 COMPANY DR,INDIANAPOLIS,IN,46237
7427 COMPANY DR,INDIANAPOLIS,IN,46237
4727 SHERMAN DR,INDIANAPOLIS,IN,46237
3565 KEYSTONE AVE,INDIANAPOLIS,IN,46227
3653 CARSON AVE,INDIANAPOLIS,IN,46227
2719 TROY AVE,INDIANAPOLIS,IN,46203
5703 EAST ST,INDIANAPOLIS,IN,46227
5835 MADISON AVE,INDIANAPOLIS,IN,46227
4402 CREEK VIEW DR,INDIANAPOLIS,IN,46237
8935 US 31 INDIANAPOLIS,IN,46227
8823 MADISON AVE,INDIANAPOLIS,IN,46227
7110 MADISON AVE,INDIANAPOLIS,IN,46227
25 BIXLER RD,INDIANAPOLIS,IN,46227
201 EPLER AVE,INDIANAPOLIS,IN,46227
2515 HOLT RD,INDIANAPOLIS,IN,46241
3401 KELLY ST,INDIANAPOLIS,IN,46241
3331 ARBOR ST,INDIANAPOLIS,IN,46217
3114 MADISON AVE,INDIANAPOLIS,IN,46227
650 MURRY ST,INDIANAPOLIS,IN,46227
1231 TROY AVE,INDIANAPOLIS,IN,46225
3805 EAST ST,INDIANAPOLIS,IN,46227
1012 SUMNER AVE,INDIANAPOLIS,IN,46227
4605 HARDING ST,INDIANAPOLIS,IN,46217
1220 NELSON AVE,INDIANAPOLIS,IN,46203
1020 TROY AVE,INDIANAPOLIS,IN,46225
2845 SHELBY ST,INDIANAPOLIS,IN,46203
1018 TROY AVE,INDIANAPOLIS,IN,46203
1035 POST RD,INDIANAPOLIS,IN,46219
1551 POST RD,INDIANAPOLIS,IN,46219
1505 POST RD,INDIANAPOLIS,IN,46219
8850 21ST ST,INDIANAPOLIS,IN,46219
3180 KENWOOD AVE,INDIANAPOLIS,IN,46208
3140 ILLINOIS ST,INDIANAPOLIS,IN,46208
4209 62ND ST,INDIANAPOLIS,IN,46220
3901 WASHINGTON ST,INDIANAPOLIS,IN,46201
101 PARKER AVE,INDIANAPOLIS,IN,46201
8013 WASHINGTON ST,INDIANAPOLIS,IN,46231
5020 62ND ST,INDIANAPOLIS,IN,46220
3741 SHADELAND AVE,INDIANAPOLIS,IN,46226
6327 FERGUSON ST,INDIANAPOLIS,IN,46220
6235 GUILFORD AVE,INDIANAPOLIS,IN,46220
810 BROAD RIPPLE AVE,INDIANAPOLIS,IN,46220
4609 CAPITOL AVE,INDIANAPOLIS,IN,46208
3801 ILLINOIS ST,INDIANAPOLIS,IN,46208
119 56TH ST,INDIANAPOLIS,IN,46208
5947 KENTUCKY AVE,INDIANAPOLIS,IN,46221
6303 82ND ST,INDIANAPOLIS,IN,46250
8420 MASTERS RD,INDIANAPOLIS,IN,46250
5920 CASTLEWAY WDR,INDIANAPOLIS,IN,46250
8250 BASH ST,INDIANAPOLIS,IN,46250
7157 96TH ST,INDIANAPOLIS,IN,46250
6302 82ND ST,INDIANAPOLIS,IN,46250
8255 BASH ST,INDIANAPOLIS,IN,46250
8202 ALLISONVILLE RD,INDIANAPOLIS,IN,46250
6375 ROCKVILLE RD,INDIANAPOLIS,IN,46214
6301 ROCKVILLE RD,INDIANAPOLIS,IN,46214
6780 WASHINGTON ST,INDIANAPOLIS,IN,46241
6880 WASHINGTON ST,INDIANAPOLIS,IN,46241
7275 10TH ST,INDIANAPOLIS,IN,46214
8724 WASHINGTON ST,INDIANAPOLIS,IN,46231
1402 73RD ST,INDIANAPOLIS,IN,46240
3809 82ND ST,INDIANAPOLIS,IN,46240
2201 54TH ST,INDIANAPOLIS,IN,46220
5216 KEYSTONE AVE,INDIANAPOLIS,IN,46220
5733 MICHIGAN RD,INDIANAPOLIS,IN,46228
6002 MICHIGAN RD,INDIANAPOLIS,IN,46228
5659 MICHIGAN RD,INDIANAPOLIS,IN,46228
5336 38TH ST,INDIANAPOLIS,IN,46218
4601 ARLINGTON AVE,INDIANAPOLIS,IN,46226
5310 LADYWOOD KNOLL PL,INDIANAPOLIS,IN,46226
701 SENATE AVE,INDIANAPOLIS,IN,46202
438 VIRGINIA AVE,INDIANAPOLIS,IN,46203
647 11TH ST,INDIANAPOLIS,IN,46202
225 MERIDIAN ST,INDIANAPOLIS,IN,46225
14 MARYLAND ST,INDIANAPOLIS,IN,46204
646 MASSACHUSETTS AVE,INDIANAPOLIS,IN,46202
307 PENNSYLVANIA ST,INDIANAPOLIS,IN,46204
11 MERIDIAN ST,INDIANAPOLIS,IN,46204
220 FULTON ST,INDIANAPOLIS,IN,46202
152 WASHINGTON ST,INDIANAPOLIS,IN,46204
1150 PROSPECT ST,INDIANAPOLIS,IN,46203
1261 SHELBY ST,INDIANAPOLIS,IN,46203
1839 FLETCHER AVE,INDIANAPOLIS,IN,46203
1913 PROSPECT ST,INDIANAPOLIS,IN,46203
921 WASHINGTON ST,INDIANAPOLIS,IN,46202
1426 ORANGE ST,INDIANAPOLIS,IN,46203
424 SHELBY ST,INDIANAPOLIS,IN,46203
3101 RAYMOND ST,INDIANAPOLIS,IN,46203
2204 TROY AVE,INDIANAPOLIS,IN,46203
2731 BETHEL AVE,INDIANAPOLIS,IN,46203
2618 BETHEL AVE,INDIANAPOLIS,IN,46203
6929 38TH ST,INDIANAPOLIS,IN,46254
3081 SALT LAKE RD,INDIANAPOLIS,IN,46214
2032 10TH ST,INDIANAPOLIS,IN,46201
2028 BROOKSIDE AVE,INDIANAPOLIS,IN,46201
4627 10TH ST,INDIANAPOLIS,IN,46201
3026 WASHINGTON ST,INDIANAPOLIS,IN,46201
8 RURAL ST,INDIANAPOLIS,IN,46201
561 DORMAN ST,INDIANAPOLIS,IN,46202
507 GLADSTONE AVE,INDIANAPOLIS,IN,46201
1328 ROOSEVELT AVE,INDIANAPOLIS,IN,46202
4212 MICHIGAN ST,INDIANAPOLIS,IN,46201
2119 10TH ST,INDIANAPOLIS,IN,46201
1609 EAST ST,INDIANAPOLIS,IN,46225
1575 SENATE AVE,INDIANAPOLIS,IN,46225
1703 MADISON AVE,INDIANAPOLIS,IN,46225
4900 38TH ST,INDIANAPOLIS,IN,46218
3316 JENNINGS ST,INDIANAPOLIS,IN,46218
1805 INGRAM ST,INDIANAPOLIS,IN,46218
2500 SANGSTER AVE,INDIANAPOLIS,IN,46218
3321 SUTHERLAND AVE,INDIANAPOLIS,IN,46218
2002 HILLSIDE AVE,INDIANAPOLIS,IN,46218
2017 WINTER AVE,INDIANAPOLIS,IN,46218
2041 SHELDON ST,INDIANAPOLIS,IN,46218
3823 MASSACHUSETTS AVE,INDIANAPOLIS,IN,46218
4006 KEYSTONE AVE,INDIANAPOLIS,IN,46205
4006 KEYSTONE AVE,INDIANAPOLIS,IN,46205
3628 SHERMAN DR,INDIANAPOLIS,IN,46218
3620 38TH ST,INDIANAPOLIS,IN,46218
1901 PENNSYLVANIA ST,INDIANAPOLIS,IN,46202
877 30TH ST,INDIANAPOLIS,IN,46205
902 17TH ST,INDIANAPOLIS,IN,46202
229 13TH ST,INDIANAPOLIS,IN,46202
20 16TH ST,INDIANAPOLIS,IN,46202
2700 COLLEGE AVE,INDIANAPOLIS,IN,46205
1302 MERIDIAN ST,INDIANAPOLIS,IN,46202
1828 ILLINOIS ST,INDIANAPOLIS,IN,46202
2605 55TH PL,INDIANAPOLIS,IN,46220
2421 WILLOWBROOK PKWY,INDIANAPOLIS,IN,46205
2120 CLAY ST,INDIANAPOLIS,IN,46205
4230 FALL CREEK PKWY NDR,INDIANAPOLIS,IN,46205
2308 WHITE AVE,INDIANAPOLIS,IN,46208
822 EUGENE ST,INDIANAPOLIS,IN,46208
2448 DR M L KING JR ST,INDIANAPOLIS,IN,46208
872 27TH ST,INDIANAPOLIS,IN,46208
5110 LAFAYETTE RD,INDIANAPOLIS,IN,46254
5011 LAFAYETTE RD,INDIANAPOLIS,IN,46254
5201 LAFAYETTE RD,INDIANAPOLIS,IN,46254
5238 LAFAYETTE RD,INDIANAPOLIS,IN,46254
5198 LAFAYETTE RD,INDIANAPOLIS,IN,46254
5179 LAFAYETTE RD,INDIANAPOLIS,IN,46254
5685 LAFAYETTE RD,INDIANAPOLIS,IN,46254
4330 MORRIS ST,INDIANAPOLIS,IN,46241
3842 MORRIS ST,INDIANAPOLIS,IN,46241
819 DENISON ST,INDIANAPOLIS,IN,46241
4304 MORRIS ST,INDIANAPOLIS,IN,46241
5224 SOUTHERN AVE,INDIANAPOLIS,IN,46241
2557 MORRIS ST,INDIANAPOLIS,IN,46221
2402 RAYMOND ST,INDIANAPOLIS,IN,46241
703 BELMONT AVE,INDIANAPOLIS,IN,46222
2134 WASHINGTON ST,INDIANAPOLIS,IN,46222
412 TREMONT ST,INDIANAPOLIS,IN,46222
2618 ST CLAIR ST,INDIANAPOLIS,IN,46222
740 HOLMES AVE,INDIANAPOLIS,IN,46222
3442 NORTH ST,INDIANAPOLIS,IN,46222
773 KETCHAM ST,INDIANAPOLIS,IN,46222
2425 MICHIGAN ST,INDIANAPOLIS,IN,46222
3002 16TH ST,INDIANAPOLIS,IN,46222
3032 16TH ST,INDIANAPOLIS,IN,46222
5410 34TH ST,INDIANAPOLIS,IN,46224
3649 30TH ST,INDIANAPOLIS,IN,46222
3103 HIGH SCHOOL RD,INDIANAPOLIS,IN,46224
5207 COLLEGE AVE,INDIANAPOLIS,IN,46220
4217 CENTRAL AVE,INDIANAPOLIS,IN,46205
1616 86TH ST,INDIANAPOLIS,IN,46240
1300 86TH ST,INDIANAPOLIS,IN,46240
2801 POST RD,INDIANAPOLIS,IN,46219
610 AUDUBON RD,INDIANAPOLIS,IN,46219
6742 WASHINGTON ST,INDIANAPOLIS,IN,46219
75 KENYON ST,INDIANAPOLIS,IN,46219
6738 WASHINGTON ST,INDIANAPOLIS,IN,46219
6201 WASHINGTON ST,INDIANAPOLIS,IN,46219
411 RITTER AVE,INDIANAPOLIS,IN,46219
6990 10TH ST,INDIANAPOLIS,IN,46219
7101 10TH ST,INDIANAPOLIS,IN,46219
825 KITLEY AVE,INDIANAPOLIS,IN,46219
125 SHORTRIDGE RD,INDIANAPOLIS,IN,46219
6811 21ST ST,INDIANAPOLIS,IN,46219
5780 25TH ST,INDIANAPOLIS,IN,46218
1011 EMERSON AVE,INDIANAPOLIS,IN,46219
5938 21ST ST,INDIANAPOLIS,IN,46218
6680 21ST ST,INDIANAPOLIS,IN,46219
5095 THOMPSON RD,INDIANAPOLIS,IN,46237
3561 SHELBY ST,INDIANAPOLIS,IN,46227
1105 MARTIN ST,INDIANAPOLIS,IN,46227
4131 SHELBY ST,INDIANAPOLIS,IN,46227
3645 SHELBY ST,INDIANAPOLIS,IN,46227
5142 MADISON AVE,INDIANAPOLIS,IN,46227
1523 EPLER AVE,INDIANAPOLIS,IN,46227
3141 THOMPSON RD,INDIANAPOLIS,IN,46227
4813 MADISON AVE,INDIANAPOLIS,IN,46227
7004 MADISON AVE,INDIANAPOLIS,IN,46227
7245 US 31 INDIANAPOLIS,IN,46227
8401 MADISON AVE,INDIANAPOLIS,IN,46227
7750 MADISON AVE,INDIANAPOLIS,IN,46227
2010 STOP 13 RD,INDIANAPOLIS,IN,46227
8017 MERIDIAN ST,INDIANAPOLIS,IN,46217
7000 MERIDIAN ST,INDIANAPOLIS,IN,46217
1480 SOUTHPORT RD,INDIANAPOLIS,IN,46217
5864 EAST ST,INDIANAPOLIS,IN,46227
5400 MERIDIAN ST,INDIANAPOLIS,IN,46217
1631 THOMPSON RD,INDIANAPOLIS,IN,46217
2310 SOUTHPORT RD,INDIANAPOLIS,IN,46217
2300 TIBBS AVE,INDIANAPOLIS,IN,46241
1305 TROY AVE,INDIANAPOLIS,IN,46225
4245 EAST ST,INDIANAPOLIS,IN,46227
3445 MADISON AVE,INDIANAPOLIS,IN,46227
3915 MADISON AVE,INDIANAPOLIS,IN,46227
3599 EAST ST,INDIANAPOLIS,IN,46227
510 PERRY ST,INDIANAPOLIS,IN,46227
4124 SHELBY ST,INDIANAPOLIS,IN,46227
3200 EAST ST,INDIANAPOLIS,IN,46227
3747 MERIDIAN ST,INDIANAPOLIS,IN,46217
3931 EAST ST,INDIANAPOLIS,IN,46227
3331 ARBOR ST,INDIANAPOLIS,IN,46217
605 STOVER AVE,INDIANAPOLIS,IN,46227
2802 HOLT RD,INDIANAPOLIS,IN,46241
2701 TAFT AVE,INDIANAPOLIS,IN,46241
1012 TROY AVE,INDIANAPOLIS,IN,46225
828 TROY AVE,INDIANAPOLIS,IN,46203
2742 MADISON AVE,INDIANAPOLIS,IN,46225
8444 WASHINGTON ST,INDIANAPOLIS,IN,46219
2105 MITTHOEFER RD,INDIANAPOLIS,IN,46229
3333 BOULEVARD PL,INDIANAPOLIS,IN,46208
111 38TH ST,INDIANAPOLIS,IN,46208
139 34TH ST,INDIANAPOLIS,IN,46208
2160 FLETCHER AVE,INDIANAPOLIS,IN,46203
5050 62ND ST,INDIANAPOLIS,IN,46220
8151 ALLISONVILLE RD,INDIANAPOLIS,IN,46250
5628 71ST ST,INDIANAPOLIS,IN,46220
8910 HATFIELD DR,INDIANAPOLIS,IN,46241
5230 26TH ST,INDIANAPOLIS,IN,46218
5325 30TH ST,INDIANAPOLIS,IN,46218
5207 38TH ST,INDIANAPOLIS,IN,46218
6205 38TH ST,INDIANAPOLIS,IN,46226
1405 BROAD RIPPLE AVE,INDIANAPOLIS,IN,46220
6417 FERGUSON ST,INDIANAPOLIS,IN,46220
6372 GUILFORD AVE,INDIANAPOLIS,IN,46220
6265 CARROLLTON AVE,INDIANAPOLIS,IN,46220
825 WESTFIELD BLVD,INDIANAPOLIS,IN,46220
706 BROAD RIPPLE AVE,INDIANAPOLIS,IN,46220
6507 COLLEGE AVE,INDIANAPOLIS,IN,46220
5627 ILLINOIS ST,INDIANAPOLIS,IN,46208
8520 CENTER RUN RD,INDIANAPOLIS,IN,46250
8018 CASTLEWAY DR,INDIANAPOLIS,IN,46250
7412 ROCKVILLE RD,INDIANAPOLIS,IN,46214
7123 CHAPEL HILL CT,INDIANAPOLIS,IN,46214
8734 WASHINGTON ST,INDIANAPOLIS,IN,46231
7931 10TH ST,INDIANAPOLIS,IN,46214
7311 10TH ST,INDIANAPOLIS,IN,46214
7430 ROCKVILLE RD,INDIANAPOLIS,IN,46214
9175 10TH ST,INDIANAPOLIS,IN,46234
77 GIRLS SCHOOL RD,INDIANAPOLIS,IN,46231
9225 10TH ST,INDIANAPOLIS,IN,46234
7404 ROCKVILLE RD,INDIANAPOLIS,IN,46214
1012 75TH ST,INDIANAPOLIS,IN,46240
7325 KEYSTONE AVE,INDIANAPOLIS,IN,46240
6131 MICHIGAN RD,INDIANAPOLIS,IN,46228
801 73RD ST,INDIANAPOLIS,IN,46260
6800 PENDLETON PIKE,INDIANAPOLIS,IN,46226
6314 RUCKER RD,INDIANAPOLIS,IN,46220
6612 75TH ST,INDIANAPOLIS,IN,46250
6296 RUCKER RD,INDIANAPOLIS,IN,46220
906 MERIDIAN ST,INDIANAPOLIS,IN,46225
401 MASSACHUSETTS AVE,INDIANAPOLIS,IN,46204
634 VIRGINIA AVE,INDIANAPOLIS,IN,46203
970 DELAWARE ST,INDIANAPOLIS,IN,46202
55 SOUTH ST,INDIANAPOLIS,IN,46225
1015 BROADWAY ST,INDIANAPOLIS,IN,46202
1032 MARYLAND ST,INDIANAPOLIS,IN,46202
1318 SHELBY ST,INDIANAPOLIS,IN,46203
902 VIRGINIA AVE,INDIANAPOLIS,IN,46203
921 VIRGINIA AVE,INDIANAPOLIS,IN,46203
2346 WOODLAWN AVE,INDIANAPOLIS,IN,46203
1225 LAUREL ST,INDIANAPOLIS,IN,46203
948 WOODLAWN AVE,INDIANAPOLIS,IN,46203
1011 CALVARY ST,INDIANAPOLIS,IN,46203
2218 MINNESOTA ST,INDIANAPOLIS,IN,46203
1632 BRIER PL,INDIANAPOLIS,IN,46203
3519 PROSPECT ST,INDIANAPOLIS,IN,46203
2209 KEYSTONE AVE,INDIANAPOLIS,IN,46203
2221 SHERMAN DR,INDIANAPOLIS,IN,46203
942 WASHINGTON ST,INDIANAPOLIS,IN,46202
2712 WASHINGTON ST,INDIANAPOLIS,IN,46201
2118 GALE ST,INDIANAPOLIS,IN,46218
1502 WASHINGTON ST,INDIANAPOLIS,IN,46201
1717 NEW YORK ST,INDIANAPOLIS,IN,46201
573 DORMAN ST,INDIANAPOLIS,IN,46202
3501 BROOKSIDE PKWY SDR,INDIANAPOLIS,IN,46201
1534 EMERSON AVE,INDIANAPOLIS,IN,46219
4710 10TH ST,INDIANAPOLIS,IN,46201
4609 10TH ST,INDIANAPOLIS,IN,46201
1010 TEMPLE AVE,INDIANAPOLIS,IN,46201
1451 SHERMAN DR,INDIANAPOLIS,IN,46201
2522 WASHINGTON ST,INDIANAPOLIS,IN,46201
2860 COLUMBIA AVE,INDIANAPOLIS,IN,46205
2458 ARSENAL AVE,INDIANAPOLIS,IN,46218
2815 25TH ST,INDIANAPOLIS,IN,46218
1610 SHELDON ST,INDIANAPOLIS,IN,46218
1953 32ND ST,INDIANAPOLIS,IN,46218
3186 BALTIMORE AVE,INDIANAPOLIS,IN,46218
2345 30TH ST,INDIANAPOLIS,IN,46218
2951 BROUSE AVE,INDIANAPOLIS,IN,46218
1215 16TH ST,INDIANAPOLIS,IN,46202
2222 HILLSIDE AVE,INDIANAPOLIS,IN,46218
3014 SHERMAN DR,INDIANAPOLIS,IN,46218
4102 KEYSTONE AVE,INDIANAPOLIS,IN,46205
4125 KEYSTONE AVE,INDIANAPOLIS,IN,46205
2301 38TH ST,INDIANAPOLIS,IN,46218
4040 MILLERSVILLE RD,INDIANAPOLIS,IN,46205
1202 38TH ST,INDIANAPOLIS,IN,46205
3760 KINNEAR AVE,INDIANAPOLIS,IN,46218
3276 WINTHROP AVE,INDIANAPOLIS,IN,46205
3350 SUTHERLAND AVE,INDIANAPOLIS,IN,46218
124 14TH ST,INDIANAPOLIS,IN,46202
2015 SENATE AVE,INDIANAPOLIS,IN,46202
3535 KESSLER BLVD EDR,INDIANAPOLIS,IN,46220
4755 KINGSWAY DR,INDIANAPOLIS,IN,46205
1140 46TH ST,INDIANAPOLIS,IN,46205
2002 46TH ST,INDIANAPOLIS,IN,46205
2902 BROADWAY ST,INDIANAPOLIS,IN,46205
2630 HARDING ST,INDIANAPOLIS,IN,46208
2530 BURTON AVE,INDIANAPOLIS,IN,46208
816 30TH ST,INDIANAPOLIS,IN,46208
5630 GEORGETOWN RD,INDIANAPOLIS,IN,46254
4820 57TH ST,INDIANAPOLIS,IN,46254
5918 TYBALT LN,INDIANAPOLIS,IN,46254
5235 ROCKVILLE RD,INDIANAPOLIS,IN,46224
4704 WASHINGTON ST,INDIANAPOLIS,IN,46241
5420 WASHINGTON ST,INDIANAPOLIS,IN,46241
530 TAFT AVE,INDIANAPOLIS,IN,46241
4510 WASHINGTON ST,INDIANAPOLIS,IN,46241
3915 MORRIS ST,INDIANAPOLIS,IN,46241
4325 WASHINGTON ST,INDIANAPOLIS,IN,46241
4205 MORRIS ST,INDIANAPOLIS,IN,46241
5605 MORRIS ST,INDIANAPOLIS,IN,46241
1841 MORRIS ST,INDIANAPOLIS,IN,46221
2900 MORRIS ST,INDIANAPOLIS,IN,46241
3420 WASHINGTON ST,INDIANAPOLIS,IN,46222
2111 10TH ST,INDIANAPOLIS,IN,46222
3637 10TH ST,INDIANAPOLIS,IN,46222
3428 MICHIGAN ST,INDIANAPOLIS,IN,46222
734 HOLMES AVE,INDIANAPOLIS,IN,46222
3435 16TH ST,INDIANAPOLIS,IN,46222
3145 16TH ST,INDIANAPOLIS,IN,46222
2901 LAFAYETTE RD,INDIANAPOLIS,IN,46222
2801 LAFAYETTE RD,INDIANAPOLIS,IN,46222
3460 16TH ST,INDIANAPOLIS,IN,46222
2102 LAFAYETTE RD,INDIANAPOLIS,IN,46222
6440 34TH ST,INDIANAPOLIS,IN,46224
8710 MERIDIAN ST,INDIANAPOLIS,IN,46260
7435 86TH ST,INDIANAPOLIS,IN,46256
7330 86TH ST,INDIANAPOLIS,IN,46256
3753 POST RD,INDIANAPOLIS,IN,46226
5329 BROOKVILLE RD,INDIANAPOLIS,IN,46219
5930 BROOKVILLE RD,INDIANAPOLIS,IN,46219
5478 BROOKVILLE RD,INDIANAPOLIS,IN,46219
5201 PLEASANT RUN PKWY SDR,INDIANAPOLIS,IN,46219
710 SHORTRIDGE RD,INDIANAPOLIS,IN,46219
2305 KITLEY AVE,INDIANAPOLIS,IN,46219
1011 EMERSON AVE,INDIANAPOLIS,IN,46219
802 FRANKLIN RD,INDIANAPOLIS,IN,46239
5102 SOUTHEASTERN AVE,INDIANAPOLIS,IN,46203
7120 EMBLEM DR,INDIANAPOLIS,IN,46237
5025 THOMPSON RD,INDIANAPOLIS,IN,46237
3350 CARSON AVE,INDIANAPOLIS,IN,46227
6801 EAST ST,INDIANAPOLIS,IN,46227
7565 US 31 INDIANAPOLIS,IN,46227
8150 US 31 INDIANAPOLIS,IN,46227
8031 MADISON AVE,INDIANAPOLIS,IN,46227
8110 MADISON AVE,INDIANAPOLIS,IN,46227
1935 STOP 13 RD,INDIANAPOLIS,IN,46227
8046 MERIDIAN ST,INDIANAPOLIS,IN,46217
1925 EDGEWOOD AVE,INDIANAPOLIS,IN,46217
4604 BLUFF RD,INDIANAPOLIS,IN,46217
5950 BELMONT AVE,INDIANAPOLIS,IN,46217
2905 KENTUCKY AVE,INDIANAPOLIS,IN,46221
3331 ARBOR ST,INDIANAPOLIS,IN,46217
3652 MERIDIAN ST,INDIANAPOLIS,IN,46217
3625 EAST ST,INDIANAPOLIS,IN,46227
2617 SHELBY ST,INDIANAPOLIS,IN,46203
2311 SHELBY ST,INDIANAPOLIS,IN,46203
2530 BLUFF RD,INDIANAPOLIS,IN,46225
1026 TROY AVE,INDIANAPOLIS,IN,46203
1007 POST RD,INDIANAPOLIS,IN,46219
10240 21ST ST,INDIANAPOLIS,IN,46229
8320 10TH ST,INDIANAPOLIS,IN,46219
6120 ALLISONVILLE RD,INDIANAPOLIS,IN,46220
6275 KEYSTONE AVE,INDIANAPOLIS,IN,46220
223 LASALLE ST,INDIANAPOLIS,IN,46201
3029 WASHINGTON ST,INDIANAPOLIS,IN,46201
3456 PROSPECT ST,INDIANAPOLIS,IN,46203
1031 VANDEMAN ST,INDIANAPOLIS,IN,46203
7255 WASHINGTON ST,INDIANAPOLIS,IN,46241
6101 34TH ST,INDIANAPOLIS,IN,46226
6849 32ND ST,INDIANAPOLIS,IN,46226
5353 34TH ST,INDIANAPOLIS,IN,46218
5660 30TH ST,INDIANAPOLIS,IN,46218
6225 38TH ST,INDIANAPOLIS,IN,46226
3402 62ND ST,INDIANAPOLIS,IN,46268
3096 62ND ST,INDIANAPOLIS,IN,46268
3402 62ND ST,INDIANAPOLIS,IN,46268
6345 CARROLLTON AVE,INDIANAPOLIS,IN,46220
6243 COLLEGE AVE,INDIANAPOLIS,IN,46220
6048 KEYSTONE AVE,INDIANAPOLIS,IN,46220
6555 CARROLLTON AVE,INDIANAPOLIS,IN,46220
6418 CARROLLTON AVE,INDIANAPOLIS,IN,46220
6225 BROADWAY ST,INDIANAPOLIS,IN,46220
6319 GUILFORD AVE,INDIANAPOLIS,IN,46220
7171 PENNSYLVANIA ST,INDIANAPOLIS,IN,46240
5440 82ND ST,INDIANAPOLIS,IN,46250
8246 ALLISONVILLE RD,INDIANAPOLIS,IN,46250
6815 82ND ST,INDIANAPOLIS,IN,46250
5655 CASTLE CREEK PKWY NDR,INDIANAPOLIS,IN,46250
8073 CASTLETON RD,INDIANAPOLIS,IN,46250
9550 ALLISONVILLE RD,INDIANAPOLIS,IN,46250
855 HIGH SCHOOL RD,INDIANAPOLIS,IN,46214
8752 WASHINGTON ST,INDIANAPOLIS,IN,46231
7246 CASTLE MANOR DR,INDIANAPOLIS,IN,46214